<?xml version="1.0" encoding="UTF-8"?>
<gpx creator="StravaGPX" version="1.1" xmlns="http://www.topografix.com/GPX/1/1" xmlns:xsi="http://www.w3.org/2001/XMLSchema-instance" xsi:schemaLocation="http://www.topografix.com/GPX/1/1 http://www.topografix.com/GPX/1/1/gpx.xsd">
 <metadata>
  <name>KOTR_D1_Warm up ride</name>
  <author>
   <name>Ian Thompson</name>
   <link href="https://www.strava.com/athletes/42632817"/>
  </author>
  <copyright author="OpenStreetMap contributors">
   <year>2020</year>
   <license>https://www.openstreetmap.org/copyright</license>
  </copyright>
  <link href="https://www.strava.com/routes/3477671672521313666"/>
 </metadata>
 <trk>
  <name>KOTR_D1_Warm up ride</name>
  <link href="https://www.strava.com/routes/3477671672521313666"/>
  <type>cycling</type>
  <trkseg>
   <trkpt lat="43.92618" lon="4.844740000000001">
    <ele>25.01</ele>
   </trkpt>
   <trkpt lat="43.926120000000004" lon="4.844720000000001">
    <ele>25.030000000000005</ele>
   </trkpt>
   <trkpt lat="43.92586" lon="4.8445">
    <ele>25.32</ele>
   </trkpt>
   <trkpt lat="43.925740000000005" lon="4.84443">
    <ele>25.460000000000004</ele>
   </trkpt>
   <trkpt lat="43.925450000000005" lon="4.844270000000001">
    <ele>25.460000000000004</ele>
   </trkpt>
   <trkpt lat="43.92504" lon="4.84412">
    <ele>26.650000000000002</ele>
   </trkpt>
   <trkpt lat="43.9245" lon="4.84396">
    <ele>25.86</ele>
   </trkpt>
   <trkpt lat="43.92399" lon="4.84386">
    <ele>25.86</ele>
   </trkpt>
   <trkpt lat="43.923610000000004" lon="4.84375">
    <ele>25.820000000000004</ele>
   </trkpt>
   <trkpt lat="43.922790000000006" lon="4.8435500000000005">
    <ele>24.8</ele>
   </trkpt>
   <trkpt lat="43.92268000000001" lon="4.84349">
    <ele>24.8</ele>
   </trkpt>
   <trkpt lat="43.922560000000004" lon="4.8434800000000005">
    <ele>24.8</ele>
   </trkpt>
   <trkpt lat="43.92248" lon="4.84349">
    <ele>24.8</ele>
   </trkpt>
   <trkpt lat="43.92201" lon="4.8436200000000005">
    <ele>24.8</ele>
   </trkpt>
   <trkpt lat="43.92192" lon="4.84367">
    <ele>24.8</ele>
   </trkpt>
   <trkpt lat="43.92179" lon="4.84382">
    <ele>24.8</ele>
   </trkpt>
   <trkpt lat="43.921440000000004" lon="4.84454">
    <ele>25.7</ele>
   </trkpt>
   <trkpt lat="43.92125" lon="4.844790000000001">
    <ele>25.7</ele>
   </trkpt>
   <trkpt lat="43.921020000000006" lon="4.844950000000001">
    <ele>25.7</ele>
   </trkpt>
   <trkpt lat="43.92078" lon="4.84503">
    <ele>25.7</ele>
   </trkpt>
   <trkpt lat="43.92061" lon="4.84506">
    <ele>25.7</ele>
   </trkpt>
   <trkpt lat="43.92033000000001" lon="4.845160000000001">
    <ele>25.7</ele>
   </trkpt>
   <trkpt lat="43.91973000080748" lon="4.845550003839105">
    <ele>27.37</ele>
   </trkpt>
   <trkpt lat="43.91913" lon="4.845940000000001">
    <ele>27.37</ele>
   </trkpt>
   <trkpt lat="43.91884" lon="4.84621">
    <ele>27.37</ele>
   </trkpt>
   <trkpt lat="43.918400000000005" lon="4.8467">
    <ele>27.64</ele>
   </trkpt>
   <trkpt lat="43.9183" lon="4.84677">
    <ele>27.64</ele>
   </trkpt>
   <trkpt lat="43.91789000000001" lon="4.84691">
    <ele>27.750000000000004</ele>
   </trkpt>
   <trkpt lat="43.91761" lon="4.84707">
    <ele>27.750000000000004</ele>
   </trkpt>
   <trkpt lat="43.917440000000006" lon="4.847090000000001">
    <ele>27.750000000000004</ele>
   </trkpt>
   <trkpt lat="43.917320000000004" lon="4.847060000000001">
    <ele>27.71</ele>
   </trkpt>
   <trkpt lat="43.91657" lon="4.84668">
    <ele>27.71</ele>
   </trkpt>
   <trkpt lat="43.916500000000006" lon="4.84666">
    <ele>27.71</ele>
   </trkpt>
   <trkpt lat="43.916430000000005" lon="4.8466700000000005">
    <ele>27.71</ele>
   </trkpt>
   <trkpt lat="43.915820000000004" lon="4.84686">
    <ele>25.720000000000002</ele>
   </trkpt>
   <trkpt lat="43.915790002133015" lon="4.846159999565669">
    <ele>25.720000000000002</ele>
   </trkpt>
   <trkpt lat="43.915760000000006" lon="4.84546">
    <ele>26.03</ele>
   </trkpt>
   <trkpt lat="43.915700006222984" lon="4.844264998725642">
    <ele>26.03</ele>
   </trkpt>
   <trkpt lat="43.91564" lon="4.84307">
    <ele>26.03</ele>
   </trkpt>
   <trkpt lat="43.91564" lon="4.84266">
    <ele>26.03</ele>
   </trkpt>
   <trkpt lat="43.91569500334182" lon="4.84178500075238">
    <ele>26.03</ele>
   </trkpt>
   <trkpt lat="43.91575" lon="4.84091">
    <ele>26.03</ele>
   </trkpt>
   <trkpt lat="43.91578500513483" lon="4.839825000579451">
    <ele>26.03</ele>
   </trkpt>
   <trkpt lat="43.915820000000004" lon="4.8387400000000005">
    <ele>27.76</ele>
   </trkpt>
   <trkpt lat="43.915872021800496" lon="4.8376220038897735">
    <ele>27.76</ele>
   </trkpt>
   <trkpt lat="43.91592403270121" lon="4.836504005824986">
    <ele>27.76</ele>
   </trkpt>
   <trkpt lat="43.91597603270211" lon="4.835386005806043">
    <ele>27.76</ele>
   </trkpt>
   <trkpt lat="43.91602802180316" lon="4.834268003833346">
    <ele>27.76</ele>
   </trkpt>
   <trkpt lat="43.91608" lon="4.833150000000001">
    <ele>27.76</ele>
   </trkpt>
   <trkpt lat="43.91610751243395" lon="4.83217500137979">
    <ele>27.76</ele>
   </trkpt>
   <trkpt lat="43.916135016578096" lon="4.831200001858132">
    <ele>27.76</ele>
   </trkpt>
   <trkpt lat="43.9161625124324" lon="4.8302250014352985">
    <ele>25.09</ele>
   </trkpt>
   <trkpt lat="43.91619" lon="4.82925">
    <ele>25.09</ele>
   </trkpt>
   <trkpt lat="43.91621000000001" lon="4.8290500000000005">
    <ele>25.09</ele>
   </trkpt>
   <trkpt lat="43.91626" lon="4.828880000000001">
    <ele>25.09</ele>
   </trkpt>
   <trkpt lat="43.91633" lon="4.82878">
    <ele>25.09</ele>
   </trkpt>
   <trkpt lat="43.91646" lon="4.82868">
    <ele>25.09</ele>
   </trkpt>
   <trkpt lat="43.916810000000005" lon="4.82847">
    <ele>25.09</ele>
   </trkpt>
   <trkpt lat="43.9166" lon="4.827310000000001">
    <ele>25.09</ele>
   </trkpt>
   <trkpt lat="43.916520000000006" lon="4.827100000000001">
    <ele>25.09</ele>
   </trkpt>
   <trkpt lat="43.9164" lon="4.82695">
    <ele>25.09</ele>
   </trkpt>
   <trkpt lat="43.91581" lon="4.826440000000001">
    <ele>24.43</ele>
   </trkpt>
   <trkpt lat="43.91563" lon="4.82636">
    <ele>24.43</ele>
   </trkpt>
   <trkpt lat="43.915490000000005" lon="4.8263300000000005">
    <ele>24.43</ele>
   </trkpt>
   <trkpt lat="43.9153" lon="4.82638">
    <ele>24.43</ele>
   </trkpt>
   <trkpt lat="43.914970000000004" lon="4.82655">
    <ele>24.23</ele>
   </trkpt>
   <trkpt lat="43.91492" lon="4.826560000000001">
    <ele>22.69</ele>
   </trkpt>
   <trkpt lat="43.91478" lon="4.82598">
    <ele>22.69</ele>
   </trkpt>
   <trkpt lat="43.91468000628278" lon="4.825129996992765">
    <ele>22.69</ele>
   </trkpt>
   <trkpt lat="43.91458000626505" lon="4.824279996842176">
    <ele>22.69</ele>
   </trkpt>
   <trkpt lat="43.914480000000005" lon="4.82343">
    <ele>24.28</ele>
   </trkpt>
   <trkpt lat="43.914460000000005" lon="4.82305">
    <ele>24.28</ele>
   </trkpt>
   <trkpt lat="43.91449" lon="4.8224800000000005">
    <ele>24.28</ele>
   </trkpt>
   <trkpt lat="43.91465460403262" lon="4.8213209411429165">
    <ele>24.28</ele>
   </trkpt>
   <trkpt lat="43.91481919635007" lon="4.8201618758740095">
    <ele>24.28</ele>
   </trkpt>
   <trkpt lat="43.91498377695219" lon="4.819002804193661">
    <ele>24.28</ele>
   </trkpt>
   <trkpt lat="43.91514834583887" lon="4.817843726102258">
    <ele>24.28</ele>
   </trkpt>
   <trkpt lat="43.915312903009976" lon="4.816684641600184">
    <ele>24.28</ele>
   </trkpt>
   <trkpt lat="43.91547744846539" lon="4.815525550687822">
    <ele>24.28</ele>
   </trkpt>
   <trkpt lat="43.915641982204946" lon="4.8143664533655555">
    <ele>23.790000000000003</ele>
   </trkpt>
   <trkpt lat="43.91580650422852" lon="4.81320734963377">
    <ele>23.790000000000003</ele>
   </trkpt>
   <trkpt lat="43.915971014536" lon="4.812048239492849">
    <ele>23.790000000000003</ele>
   </trkpt>
   <trkpt lat="43.916135513127244" lon="4.810889122943177">
    <ele>23.790000000000003</ele>
   </trkpt>
   <trkpt lat="43.91630000000001" lon="4.80973">
    <ele>23.790000000000003</ele>
   </trkpt>
   <trkpt lat="43.91633" lon="4.80938">
    <ele>23.790000000000003</ele>
   </trkpt>
   <trkpt lat="43.916540000000005" lon="4.80823">
    <ele>23.500000000000004</ele>
   </trkpt>
   <trkpt lat="43.91657" lon="4.808280000000001">
    <ele>23.500000000000004</ele>
   </trkpt>
   <trkpt lat="43.91669" lon="4.80905">
    <ele>24.62</ele>
   </trkpt>
   <trkpt lat="43.91677000000001" lon="4.809130000000001">
    <ele>24.62</ele>
   </trkpt>
   <trkpt lat="43.91711" lon="4.8092500000000005">
    <ele>24.580000000000002</ele>
   </trkpt>
   <trkpt lat="43.91727" lon="4.80928">
    <ele>24.580000000000002</ele>
   </trkpt>
   <trkpt lat="43.917820000000006" lon="4.8093">
    <ele>24.3</ele>
   </trkpt>
   <trkpt lat="43.917820000000006" lon="4.80945">
    <ele>24.270000000000003</ele>
   </trkpt>
   <trkpt lat="43.91752" lon="4.809480000000001">
    <ele>24.32</ele>
   </trkpt>
   <trkpt lat="43.91731" lon="4.80947">
    <ele>24.32</ele>
   </trkpt>
   <trkpt lat="43.917060000000006" lon="4.809430000000001">
    <ele>24.520000000000003</ele>
   </trkpt>
   <trkpt lat="43.91682" lon="4.80935">
    <ele>24.520000000000003</ele>
   </trkpt>
   <trkpt lat="43.91603400235342" lon="4.80898198055294">
    <ele>23.76</ele>
   </trkpt>
   <trkpt lat="43.91524800352581" lon="4.80861397082792">
    <ele>23.76</ele>
   </trkpt>
   <trkpt lat="43.91446200351721" lon="4.808245970824429">
    <ele>24.110000000000003</ele>
   </trkpt>
   <trkpt lat="43.91367600232768" lon="4.807877980541963">
    <ele>24.110000000000003</ele>
   </trkpt>
   <trkpt lat="43.912890000000004" lon="4.807510000000001">
    <ele>24.110000000000003</ele>
   </trkpt>
   <trkpt lat="43.91245000000001" lon="4.80729">
    <ele>24.43</ele>
   </trkpt>
   <trkpt lat="43.912200000000006" lon="4.80712">
    <ele>24.740000000000002</ele>
   </trkpt>
   <trkpt lat="43.91154" lon="4.8068">
    <ele>25.59</ele>
   </trkpt>
   <trkpt lat="43.91147" lon="4.80668">
    <ele>25.59</ele>
   </trkpt>
   <trkpt lat="43.911410000000004" lon="4.80665">
    <ele>25.62</ele>
   </trkpt>
   <trkpt lat="43.91133000000001" lon="4.806660000000001">
    <ele>25.540000000000003</ele>
   </trkpt>
   <trkpt lat="43.91125" lon="4.80672">
    <ele>25.540000000000003</ele>
   </trkpt>
   <trkpt lat="43.911210000000004" lon="4.80679">
    <ele>25.26</ele>
   </trkpt>
   <trkpt lat="43.911190000000005" lon="4.8068800000000005">
    <ele>25.26</ele>
   </trkpt>
   <trkpt lat="43.91122" lon="4.807040000000001">
    <ele>25.16</ele>
   </trkpt>
   <trkpt lat="43.911190000000005" lon="4.807230000000001">
    <ele>24.880000000000003</ele>
   </trkpt>
   <trkpt lat="43.91114" lon="4.8074">
    <ele>24.790000000000003</ele>
   </trkpt>
   <trkpt lat="43.910650000000004" lon="4.80841">
    <ele>23.67</ele>
   </trkpt>
   <trkpt lat="43.910070000000005" lon="4.809290000000001">
    <ele>23.4</ele>
   </trkpt>
   <trkpt lat="43.90949500280831" lon="4.810100007898995">
    <ele>23.4</ele>
   </trkpt>
   <trkpt lat="43.90892" lon="4.810910000000001">
    <ele>22.860000000000003</ele>
   </trkpt>
   <trkpt lat="43.908750000000005" lon="4.81109">
    <ele>22.860000000000003</ele>
   </trkpt>
   <trkpt lat="43.90843" lon="4.811520000000001">
    <ele>22.78</ele>
   </trkpt>
   <trkpt lat="43.90816" lon="4.811520000000001">
    <ele>22.88</ele>
   </trkpt>
   <trkpt lat="43.90740000012698" lon="4.811555000441279">
    <ele>22.94</ele>
   </trkpt>
   <trkpt lat="43.90664" lon="4.811590000000001">
    <ele>22.94</ele>
   </trkpt>
   <trkpt lat="43.906140000133966" lon="4.81144999883763">
    <ele>22.87</ele>
   </trkpt>
   <trkpt lat="43.905640000000005" lon="4.811310000000001">
    <ele>22.87</ele>
   </trkpt>
   <trkpt lat="43.905530000000006" lon="4.81132">
    <ele>22.87</ele>
   </trkpt>
   <trkpt lat="43.90543" lon="4.811380000000001">
    <ele>22.87</ele>
   </trkpt>
   <trkpt lat="43.90529" lon="4.811570000000001">
    <ele>22.87</ele>
   </trkpt>
   <trkpt lat="43.90522000000001" lon="4.81163">
    <ele>22.87</ele>
   </trkpt>
   <trkpt lat="43.90513000000001" lon="4.81163">
    <ele>22.87</ele>
   </trkpt>
   <trkpt lat="43.90489" lon="4.811470000000001">
    <ele>22.87</ele>
   </trkpt>
   <trkpt lat="43.90447500042332" lon="4.811164997886772">
    <ele>23.330000000000002</ele>
   </trkpt>
   <trkpt lat="43.90406" lon="4.810860000000001">
    <ele>23.330000000000002</ele>
   </trkpt>
   <trkpt lat="43.903650000000006" lon="4.81003">
    <ele>23.31</ele>
   </trkpt>
   <trkpt lat="43.90344" lon="4.80952">
    <ele>23.14</ele>
   </trkpt>
   <trkpt lat="43.90304500206638" lon="4.808834995490583">
    <ele>22.79</ele>
   </trkpt>
   <trkpt lat="43.90265" lon="4.80815">
    <ele>23.07</ele>
   </trkpt>
   <trkpt lat="43.902590000000004" lon="4.808140000000001">
    <ele>23.07</ele>
   </trkpt>
   <trkpt lat="43.902570000000004" lon="4.8081000000000005">
    <ele>23.07</ele>
   </trkpt>
   <trkpt lat="43.90258" lon="4.808050000000001">
    <ele>23.07</ele>
   </trkpt>
   <trkpt lat="43.90251000000001" lon="4.8079600000000005">
    <ele>23.07</ele>
   </trkpt>
   <trkpt lat="43.902013338795705" lon="4.80716665338855">
    <ele>22.580000000000002</ele>
   </trkpt>
   <trkpt lat="43.90151667210299" lon="4.806373320013811">
    <ele>22.39</ele>
   </trkpt>
   <trkpt lat="43.90102" lon="4.80558">
    <ele>21.59</ele>
   </trkpt>
   <trkpt lat="43.900940000000006" lon="4.80539">
    <ele>21.17</ele>
   </trkpt>
   <trkpt lat="43.900920000000006" lon="4.80532">
    <ele>21.17</ele>
   </trkpt>
   <trkpt lat="43.900960000000005" lon="4.805230000000001">
    <ele>21.17</ele>
   </trkpt>
   <trkpt lat="43.90093" lon="4.80515">
    <ele>20.98</ele>
   </trkpt>
   <trkpt lat="43.900870000000005" lon="4.805140000000001">
    <ele>20.98</ele>
   </trkpt>
   <trkpt lat="43.900850000000005" lon="4.80515">
    <ele>20.98</ele>
   </trkpt>
   <trkpt lat="43.90079" lon="4.8051200000000005">
    <ele>20.98</ele>
   </trkpt>
   <trkpt lat="43.900650000000006" lon="4.80499">
    <ele>20.970000000000002</ele>
   </trkpt>
   <trkpt lat="43.900290000000005" lon="4.804410000000001">
    <ele>21.28</ele>
   </trkpt>
   <trkpt lat="43.89969000000001" lon="4.8035000000000005">
    <ele>20.93</ele>
   </trkpt>
   <trkpt lat="43.899620000000006" lon="4.80337">
    <ele>20.950000000000003</ele>
   </trkpt>
   <trkpt lat="43.899260000000005" lon="4.803380000000001">
    <ele>21.43</ele>
   </trkpt>
   <trkpt lat="43.898770000000006" lon="4.80335">
    <ele>21.78</ele>
   </trkpt>
   <trkpt lat="43.89857000000001" lon="4.8033">
    <ele>22.45</ele>
   </trkpt>
   <trkpt lat="43.89837000000001" lon="4.803170000000001">
    <ele>22.78</ele>
   </trkpt>
   <trkpt lat="43.89824" lon="4.80318">
    <ele>22.78</ele>
   </trkpt>
   <trkpt lat="43.89791" lon="4.80313">
    <ele>23.03</ele>
   </trkpt>
   <trkpt lat="43.897780000000004" lon="4.80309">
    <ele>23.19</ele>
   </trkpt>
   <trkpt lat="43.897830000000006" lon="4.80281">
    <ele>23.540000000000003</ele>
   </trkpt>
   <trkpt lat="43.89764" lon="4.8026800000000005">
    <ele>23.540000000000003</ele>
   </trkpt>
   <trkpt lat="43.89737" lon="4.80245">
    <ele>23.540000000000003</ele>
   </trkpt>
   <trkpt lat="43.89697" lon="4.80198">
    <ele>22.56</ele>
   </trkpt>
   <trkpt lat="43.896770000000004" lon="4.8018">
    <ele>22.56</ele>
   </trkpt>
   <trkpt lat="43.896550000000005" lon="4.8016700000000005">
    <ele>22.140000000000004</ele>
   </trkpt>
   <trkpt lat="43.89634" lon="4.801570000000001">
    <ele>22.140000000000004</ele>
   </trkpt>
   <trkpt lat="43.896240000000006" lon="4.80161">
    <ele>22.140000000000004</ele>
   </trkpt>
   <trkpt lat="43.89611" lon="4.801690000000001">
    <ele>22.140000000000004</ele>
   </trkpt>
   <trkpt lat="43.895480000000006" lon="4.80238">
    <ele>22.73</ele>
   </trkpt>
   <trkpt lat="43.895320000000005" lon="4.80253">
    <ele>22.73</ele>
   </trkpt>
   <trkpt lat="43.8952" lon="4.8026">
    <ele>22.73</ele>
   </trkpt>
   <trkpt lat="43.89497000154874" lon="4.803185002115484">
    <ele>22.73</ele>
   </trkpt>
   <trkpt lat="43.894740000000006" lon="4.80377">
    <ele>22.73</ele>
   </trkpt>
   <trkpt lat="43.894510000000004" lon="4.80419">
    <ele>22.73</ele>
   </trkpt>
   <trkpt lat="43.894360000000006" lon="4.8044">
    <ele>22.73</ele>
   </trkpt>
   <trkpt lat="43.89372001002743" lon="4.805158032576132">
    <ele>22.73</ele>
   </trkpt>
   <trkpt lat="43.893080015044255" lon="4.805916048859665">
    <ele>22.73</ele>
   </trkpt>
   <trkpt lat="43.89244001505071" lon="4.806674048851185">
    <ele>23.42</ele>
   </trkpt>
   <trkpt lat="43.89180001004698" lon="4.807432032551283">
    <ele>23.42</ele>
   </trkpt>
   <trkpt lat="43.891160000000006" lon="4.808190000000001">
    <ele>23.42</ele>
   </trkpt>
   <trkpt lat="43.89083" lon="4.808660000000001">
    <ele>23.42</ele>
   </trkpt>
   <trkpt lat="43.890600000000006" lon="4.80902">
    <ele>23.42</ele>
   </trkpt>
   <trkpt lat="43.890220003819906" lon="4.809680008384622">
    <ele>24.91</ele>
   </trkpt>
   <trkpt lat="43.88984000384128" lon="4.810340008347399">
    <ele>24.950000000000003</ele>
   </trkpt>
   <trkpt lat="43.88946000000001" lon="4.811000000000001">
    <ele>25.39</ele>
   </trkpt>
   <trkpt lat="43.88944" lon="4.8108200000000005">
    <ele>25.39</ele>
   </trkpt>
   <trkpt lat="43.8892" lon="4.81121">
    <ele>25.39</ele>
   </trkpt>
   <trkpt lat="43.888940000000005" lon="4.81153">
    <ele>25.39</ele>
   </trkpt>
   <trkpt lat="43.888720000000006" lon="4.8117600000000005">
    <ele>23.91</ele>
   </trkpt>
   <trkpt lat="43.88814000000001" lon="4.8123000000000005">
    <ele>23.91</ele>
   </trkpt>
   <trkpt lat="43.887840000000004" lon="4.81263">
    <ele>23.91</ele>
   </trkpt>
   <trkpt lat="43.88767000000001" lon="4.812930000000001">
    <ele>23.91</ele>
   </trkpt>
   <trkpt lat="43.88756" lon="4.813300000000001">
    <ele>22.04</ele>
   </trkpt>
   <trkpt lat="43.887460000000004" lon="4.813750000000001">
    <ele>22.04</ele>
   </trkpt>
   <trkpt lat="43.88715000412651" lon="4.8147300052926925">
    <ele>21.740000000000002</ele>
   </trkpt>
   <trkpt lat="43.88684000000001" lon="4.81571">
    <ele>21.740000000000002</ele>
   </trkpt>
   <trkpt lat="43.88624" lon="4.81489">
    <ele>22.89</ele>
   </trkpt>
   <trkpt lat="43.88591" lon="4.81432">
    <ele>22.89</ele>
   </trkpt>
   <trkpt lat="43.88584" lon="4.81426">
    <ele>22.89</ele>
   </trkpt>
   <trkpt lat="43.88505000000001" lon="4.8144100000000005">
    <ele>22.62</ele>
   </trkpt>
   <trkpt lat="43.88452" lon="4.81454">
    <ele>22.62</ele>
   </trkpt>
   <trkpt lat="43.88447" lon="4.81355">
    <ele>21.980000000000004</ele>
   </trkpt>
   <trkpt lat="43.88384000083233" lon="4.8138633399723325">
    <ele>21.980000000000004</ele>
   </trkpt>
   <trkpt lat="43.88321000080851" lon="4.814176673317408">
    <ele>21.980000000000004</ele>
   </trkpt>
   <trkpt lat="43.882580000000004" lon="4.81449">
    <ele>23.680000000000003</ele>
   </trkpt>
   <trkpt lat="43.88252000000001" lon="4.81449">
    <ele>23.680000000000003</ele>
   </trkpt>
   <trkpt lat="43.88241" lon="4.814310000000001">
    <ele>23.680000000000003</ele>
   </trkpt>
   <trkpt lat="43.882340000000006" lon="4.8143">
    <ele>23.680000000000003</ele>
   </trkpt>
   <trkpt lat="43.882000000000005" lon="4.81442">
    <ele>23.680000000000003</ele>
   </trkpt>
   <trkpt lat="43.88167000000001" lon="4.8146">
    <ele>23.680000000000003</ele>
   </trkpt>
   <trkpt lat="43.881195000840044" lon="4.815045003569725">
    <ele>23.680000000000003</ele>
   </trkpt>
   <trkpt lat="43.880720000000004" lon="4.8154900000000005">
    <ele>23.680000000000003</ele>
   </trkpt>
   <trkpt lat="43.88064000000001" lon="4.81562">
    <ele>23.680000000000003</ele>
   </trkpt>
   <trkpt lat="43.88054" lon="4.81604">
    <ele>23.680000000000003</ele>
   </trkpt>
   <trkpt lat="43.88047" lon="4.81615">
    <ele>23.680000000000003</ele>
   </trkpt>
   <trkpt lat="43.880390000000006" lon="4.8162">
    <ele>23.680000000000003</ele>
   </trkpt>
   <trkpt lat="43.87979500003487" lon="4.816335001358282">
    <ele>22.740000000000002</ele>
   </trkpt>
   <trkpt lat="43.879200000000004" lon="4.816470000000001">
    <ele>22.740000000000002</ele>
   </trkpt>
   <trkpt lat="43.87881" lon="4.8166">
    <ele>22.740000000000002</ele>
   </trkpt>
   <trkpt lat="43.87905000000001" lon="4.816960000000001">
    <ele>22.76</ele>
   </trkpt>
   <trkpt lat="43.87897" lon="4.817010000000001">
    <ele>22.76</ele>
   </trkpt>
   <trkpt lat="43.878514999991474" lon="4.817100000695941">
    <ele>22.76</ele>
   </trkpt>
   <trkpt lat="43.878060000000005" lon="4.81719">
    <ele>22.76</ele>
   </trkpt>
   <trkpt lat="43.877590000000005" lon="4.81723">
    <ele>22.76</ele>
   </trkpt>
   <trkpt lat="43.877100000000006" lon="4.81731">
    <ele>22.76</ele>
   </trkpt>
   <trkpt lat="43.87695" lon="4.817360000000001">
    <ele>22.76</ele>
   </trkpt>
   <trkpt lat="43.876740000000005" lon="4.81752">
    <ele>22.76</ele>
   </trkpt>
   <trkpt lat="43.876540000000006" lon="4.81773">
    <ele>22.76</ele>
   </trkpt>
   <trkpt lat="43.876360000000005" lon="4.81784">
    <ele>22.76</ele>
   </trkpt>
   <trkpt lat="43.876110000000004" lon="4.81794">
    <ele>24.020000000000003</ele>
   </trkpt>
   <trkpt lat="43.87574" lon="4.818040000000001">
    <ele>24.020000000000003</ele>
   </trkpt>
   <trkpt lat="43.87518500005627" lon="4.818160001119032">
    <ele>24.020000000000003</ele>
   </trkpt>
   <trkpt lat="43.87463" lon="4.818280000000001">
    <ele>24.020000000000003</ele>
   </trkpt>
   <trkpt lat="43.87377" lon="4.818490000000001">
    <ele>24.020000000000003</ele>
   </trkpt>
   <trkpt lat="43.87357" lon="4.818560000000001">
    <ele>24.020000000000003</ele>
   </trkpt>
   <trkpt lat="43.8736" lon="4.81869">
    <ele>24.020000000000003</ele>
   </trkpt>
   <trkpt lat="43.87313" lon="4.81881">
    <ele>24.020000000000003</ele>
   </trkpt>
   <trkpt lat="43.87251500010474" lon="4.818820000101498">
    <ele>24.020000000000003</ele>
   </trkpt>
   <trkpt lat="43.871900000000004" lon="4.81883">
    <ele>24.23</ele>
   </trkpt>
   <trkpt lat="43.871340000000004" lon="4.8189400000000004">
    <ele>24.23</ele>
   </trkpt>
   <trkpt lat="43.87078" lon="4.819">
    <ele>24.23</ele>
   </trkpt>
   <trkpt lat="43.870580000000004" lon="4.819050000000001">
    <ele>24.23</ele>
   </trkpt>
   <trkpt lat="43.869850000707935" lon="4.819435004682922">
    <ele>22.820000000000004</ele>
   </trkpt>
   <trkpt lat="43.86912" lon="4.81982">
    <ele>22.820000000000004</ele>
   </trkpt>
   <trkpt lat="43.86849" lon="4.82019">
    <ele>22.820000000000004</ele>
   </trkpt>
   <trkpt lat="43.86795333524907" lon="4.8206633418901355">
    <ele>22.820000000000004</ele>
   </trkpt>
   <trkpt lat="43.86741666854448" lon="4.8211366752568034">
    <ele>23.67</ele>
   </trkpt>
   <trkpt lat="43.86688" lon="4.821610000000001">
    <ele>23.67</ele>
   </trkpt>
   <trkpt lat="43.86623333402484" lon="4.82188667265914">
    <ele>23.67</ele>
   </trkpt>
   <trkpt lat="43.865586667382196" lon="4.822163339315435">
    <ele>23.67</ele>
   </trkpt>
   <trkpt lat="43.864940000000004" lon="4.82244">
    <ele>23.67</ele>
   </trkpt>
   <trkpt lat="43.86488000000001" lon="4.822500000000001">
    <ele>23.67</ele>
   </trkpt>
   <trkpt lat="43.864830000000005" lon="4.822920000000001">
    <ele>23.67</ele>
   </trkpt>
   <trkpt lat="43.864790000000006" lon="4.823060000000001">
    <ele>23.67</ele>
   </trkpt>
   <trkpt lat="43.86444" lon="4.82354">
    <ele>23.090000000000003</ele>
   </trkpt>
   <trkpt lat="43.86433" lon="4.8238">
    <ele>23.090000000000003</ele>
   </trkpt>
   <trkpt lat="43.864270000000005" lon="4.824050000000001">
    <ele>23.090000000000003</ele>
   </trkpt>
   <trkpt lat="43.864230000000006" lon="4.82415">
    <ele>23.090000000000003</ele>
   </trkpt>
   <trkpt lat="43.86415" lon="4.8242">
    <ele>23.090000000000003</ele>
   </trkpt>
   <trkpt lat="43.86337499998833" lon="4.824164999544231">
    <ele>23.090000000000003</ele>
   </trkpt>
   <trkpt lat="43.8626" lon="4.82413">
    <ele>23.090000000000003</ele>
   </trkpt>
   <trkpt lat="43.86251" lon="4.8241700000000005">
    <ele>23.090000000000003</ele>
   </trkpt>
   <trkpt lat="43.86252" lon="4.82416">
    <ele>23.090000000000003</ele>
   </trkpt>
   <trkpt lat="43.86245" lon="4.824330000000001">
    <ele>23.090000000000003</ele>
   </trkpt>
   <trkpt lat="43.862280000000005" lon="4.8248500000000005">
    <ele>22.98</ele>
   </trkpt>
   <trkpt lat="43.862190000000005" lon="4.82524">
    <ele>22.98</ele>
   </trkpt>
   <trkpt lat="43.86204" lon="4.8255300000000005">
    <ele>22.98</ele>
   </trkpt>
   <trkpt lat="43.861520000000006" lon="4.8264000000000005">
    <ele>22.98</ele>
   </trkpt>
   <trkpt lat="43.861160000000005" lon="4.82695">
    <ele>22.98</ele>
   </trkpt>
   <trkpt lat="43.86093" lon="4.827170000000001">
    <ele>22.98</ele>
   </trkpt>
   <trkpt lat="43.860600000000005" lon="4.827400000000001">
    <ele>22.98</ele>
   </trkpt>
   <trkpt lat="43.86004500096547" lon="4.827885004567178">
    <ele>22.98</ele>
   </trkpt>
   <trkpt lat="43.85949" lon="4.8283700000000005">
    <ele>23.680000000000003</ele>
   </trkpt>
   <trkpt lat="43.859390000000005" lon="4.828480000000001">
    <ele>23.680000000000003</ele>
   </trkpt>
   <trkpt lat="43.85933000000001" lon="4.82861">
    <ele>23.680000000000003</ele>
   </trkpt>
   <trkpt lat="43.859260000000006" lon="4.82896">
    <ele>23.680000000000003</ele>
   </trkpt>
   <trkpt lat="43.8592" lon="4.82906">
    <ele>23.680000000000003</ele>
   </trkpt>
   <trkpt lat="43.859080000000006" lon="4.82911">
    <ele>23.680000000000003</ele>
   </trkpt>
   <trkpt lat="43.85840999994443" lon="4.829200001023518">
    <ele>23.680000000000003</ele>
   </trkpt>
   <trkpt lat="43.85774000000001" lon="4.82929">
    <ele>23.680000000000003</ele>
   </trkpt>
   <trkpt lat="43.85801" lon="4.83019">
    <ele>23.680000000000003</ele>
   </trkpt>
   <trkpt lat="43.858360000000005" lon="4.831130000000001">
    <ele>22.7</ele>
   </trkpt>
   <trkpt lat="43.85877000000001" lon="4.83183">
    <ele>23.53</ele>
   </trkpt>
   <trkpt lat="43.85875" lon="4.83199">
    <ele>23.53</ele>
   </trkpt>
   <trkpt lat="43.858810000000005" lon="4.832590000000001">
    <ele>23.53</ele>
   </trkpt>
   <trkpt lat="43.8588" lon="4.83274">
    <ele>23.53</ele>
   </trkpt>
   <trkpt lat="43.85865500409043" lon="4.83371000243759">
    <ele>23.53</ele>
   </trkpt>
   <trkpt lat="43.85851" lon="4.8346800000000005">
    <ele>23.53</ele>
   </trkpt>
   <trkpt lat="43.858360000000005" lon="4.8354800000000004">
    <ele>23.53</ele>
   </trkpt>
   <trkpt lat="43.858250000000005" lon="4.836200000000001">
    <ele>23.53</ele>
   </trkpt>
   <trkpt lat="43.858160000000005" lon="4.83717">
    <ele>21.630000000000003</ele>
   </trkpt>
   <trkpt lat="43.85811" lon="4.83793">
    <ele>21.630000000000003</ele>
   </trkpt>
   <trkpt lat="43.85812000000001" lon="4.83856">
    <ele>21.630000000000003</ele>
   </trkpt>
   <trkpt lat="43.85815" lon="4.83901">
    <ele>21.630000000000003</ele>
   </trkpt>
   <trkpt lat="43.858230000000006" lon="4.839300000000001">
    <ele>21.630000000000003</ele>
   </trkpt>
   <trkpt lat="43.85844" lon="4.839770000000001">
    <ele>21.630000000000003</ele>
   </trkpt>
   <trkpt lat="43.858470000000004" lon="4.83999">
    <ele>21.630000000000003</ele>
   </trkpt>
   <trkpt lat="43.858380000000004" lon="4.840610000000001">
    <ele>21.630000000000003</ele>
   </trkpt>
   <trkpt lat="43.858350002358584" lon="4.841345000289576">
    <ele>21.630000000000003</ele>
   </trkpt>
   <trkpt lat="43.858320000000006" lon="4.84208">
    <ele>21.630000000000003</ele>
   </trkpt>
   <trkpt lat="43.858250000000005" lon="4.8426100000000005">
    <ele>21.630000000000003</ele>
   </trkpt>
   <trkpt lat="43.85819" lon="4.8428">
    <ele>21.630000000000003</ele>
   </trkpt>
   <trkpt lat="43.85788" lon="4.843450000000001">
    <ele>21.630000000000003</ele>
   </trkpt>
   <trkpt lat="43.85784" lon="4.8436">
    <ele>21.630000000000003</ele>
   </trkpt>
   <trkpt lat="43.857800000000005" lon="4.844080000000001">
    <ele>21.630000000000003</ele>
   </trkpt>
   <trkpt lat="43.85777" lon="4.8441600000000005">
    <ele>21.630000000000003</ele>
   </trkpt>
   <trkpt lat="43.8575" lon="4.844620000000001">
    <ele>21.630000000000003</ele>
   </trkpt>
   <trkpt lat="43.85736000000001" lon="4.844950000000001">
    <ele>21.630000000000003</ele>
   </trkpt>
   <trkpt lat="43.857295002913915" lon="4.845765000662802">
    <ele>21.080000000000002</ele>
   </trkpt>
   <trkpt lat="43.85723" lon="4.84658">
    <ele>21.080000000000002</ele>
   </trkpt>
   <trkpt lat="43.85718000000001" lon="4.84743">
    <ele>21.080000000000002</ele>
   </trkpt>
   <trkpt lat="43.85717" lon="4.84832">
    <ele>21.080000000000002</ele>
   </trkpt>
   <trkpt lat="43.85723" lon="4.8494">
    <ele>21.080000000000002</ele>
   </trkpt>
   <trkpt lat="43.85721" lon="4.84968">
    <ele>21.580000000000002</ele>
   </trkpt>
   <trkpt lat="43.85719" lon="4.8498">
    <ele>21.84</ele>
   </trkpt>
   <trkpt lat="43.857130000000005" lon="4.84987">
    <ele>22.060000000000002</ele>
   </trkpt>
   <trkpt lat="43.856403334143984" lon="4.850180007567117">
    <ele>22.500000000000004</ele>
   </trkpt>
   <trkpt lat="43.85567666744998" lon="4.850490007578649">
    <ele>24.610000000000003</ele>
   </trkpt>
   <trkpt lat="43.85495" lon="4.8508000000000004">
    <ele>24.020000000000003</ele>
   </trkpt>
   <trkpt lat="43.85519" lon="4.85179">
    <ele>24.950000000000003</ele>
   </trkpt>
   <trkpt lat="43.85526" lon="4.85195">
    <ele>24.950000000000003</ele>
   </trkpt>
   <trkpt lat="43.85537" lon="4.852110000000001">
    <ele>25.650000000000002</ele>
   </trkpt>
   <trkpt lat="43.855430000000005" lon="4.85224">
    <ele>25.650000000000002</ele>
   </trkpt>
   <trkpt lat="43.855160000000005" lon="4.85236">
    <ele>25.650000000000002</ele>
   </trkpt>
   <trkpt lat="43.85466" lon="4.852480000000001">
    <ele>25.080000000000002</ele>
   </trkpt>
   <trkpt lat="43.85402999999835" lon="4.852570000956066">
    <ele>25.080000000000002</ele>
   </trkpt>
   <trkpt lat="43.8534" lon="4.85266">
    <ele>25.080000000000002</ele>
   </trkpt>
   <trkpt lat="43.85313" lon="4.85268">
    <ele>25.080000000000002</ele>
   </trkpt>
   <trkpt lat="43.852630000000005" lon="4.85264">
    <ele>25.080000000000002</ele>
   </trkpt>
   <trkpt lat="43.85224" lon="4.85259">
    <ele>25.080000000000002</ele>
   </trkpt>
   <trkpt lat="43.85149500043242" lon="4.852414993449454">
    <ele>29.240000000000002</ele>
   </trkpt>
   <trkpt lat="43.85075000059778" lon="4.852239991271075">
    <ele>29.240000000000002</ele>
   </trkpt>
   <trkpt lat="43.85000500049612" lon="4.85206499346464">
    <ele>29.240000000000002</ele>
   </trkpt>
   <trkpt lat="43.84926" lon="4.85189">
    <ele>29.240000000000002</ele>
   </trkpt>
   <trkpt lat="43.84907001215962" lon="4.853070007403356">
    <ele>29.25</ele>
   </trkpt>
   <trkpt lat="43.84888001217799" lon="4.854250007289134">
    <ele>34.58</ele>
   </trkpt>
   <trkpt lat="43.848690000000005" lon="4.85543">
    <ele>34.58</ele>
   </trkpt>
   <trkpt lat="43.848600003892756" lon="4.856375001432743">
    <ele>34.58</ele>
   </trkpt>
   <trkpt lat="43.848510000000005" lon="4.8573200000000005">
    <ele>36.74</ele>
   </trkpt>
   <trkpt lat="43.84846" lon="4.858210000000001">
    <ele>36.74</ele>
   </trkpt>
   <trkpt lat="43.84787" lon="4.858300000000001">
    <ele>35.72</ele>
   </trkpt>
   <trkpt lat="43.84778" lon="4.8583300000000005">
    <ele>35.72</ele>
   </trkpt>
   <trkpt lat="43.84789000000001" lon="4.85855">
    <ele>35.72</ele>
   </trkpt>
   <trkpt lat="43.848020000000005" lon="4.859050000000001">
    <ele>35.72</ele>
   </trkpt>
   <trkpt lat="43.848060000000004" lon="4.85961">
    <ele>39.13</ele>
   </trkpt>
   <trkpt lat="43.84803" lon="4.86007">
    <ele>39.13</ele>
   </trkpt>
   <trkpt lat="43.84792" lon="4.86092">
    <ele>41.550000000000004</ele>
   </trkpt>
   <trkpt lat="43.8479" lon="4.861280000000001">
    <ele>41.550000000000004</ele>
   </trkpt>
   <trkpt lat="43.84799" lon="4.86198">
    <ele>41.550000000000004</ele>
   </trkpt>
   <trkpt lat="43.848190002021866" lon="4.862664997621409">
    <ele>48.080000000000005</ele>
   </trkpt>
   <trkpt lat="43.84839" lon="4.8633500000000005">
    <ele>48.080000000000005</ele>
   </trkpt>
   <trkpt lat="43.848490000000005" lon="4.863770000000001">
    <ele>48.080000000000005</ele>
   </trkpt>
   <trkpt lat="43.84869500242516" lon="4.8645149974589605">
    <ele>50.71</ele>
   </trkpt>
   <trkpt lat="43.8489" lon="4.86526">
    <ele>53.800000000000004</ele>
   </trkpt>
   <trkpt lat="43.84899500305721" lon="4.866094998823469">
    <ele>53.800000000000004</ele>
   </trkpt>
   <trkpt lat="43.849090000000004" lon="4.86693">
    <ele>56.470000000000006</ele>
   </trkpt>
   <trkpt lat="43.84930334212257" lon="4.867933326209672">
    <ele>60.97</ele>
   </trkpt>
   <trkpt lat="43.84951667546737" lon="4.868936659596787">
    <ele>60.97</ele>
   </trkpt>
   <trkpt lat="43.84973" lon="4.869940000000001">
    <ele>64.05000000000001</ele>
   </trkpt>
   <trkpt lat="43.84985" lon="4.87035">
    <ele>64.05000000000001</ele>
   </trkpt>
   <trkpt lat="43.850010000000005" lon="4.87066">
    <ele>64.05000000000001</ele>
   </trkpt>
   <trkpt lat="43.84948000261682" lon="4.871425006703469">
    <ele>60.21000000000001</ele>
   </trkpt>
   <trkpt lat="43.84895" lon="4.872190000000001">
    <ele>60.21000000000001</ele>
   </trkpt>
   <trkpt lat="43.848400000000005" lon="4.87295">
    <ele>60.63</ele>
   </trkpt>
   <trkpt lat="43.84788" lon="4.87385">
    <ele>60.63</ele>
   </trkpt>
   <trkpt lat="43.84767" lon="4.87418">
    <ele>60.63</ele>
   </trkpt>
   <trkpt lat="43.847620000000006" lon="4.87443">
    <ele>60.63</ele>
   </trkpt>
   <trkpt lat="43.84754" lon="4.87464">
    <ele>60.63</ele>
   </trkpt>
   <trkpt lat="43.847460000000005" lon="4.87471">
    <ele>73.01</ele>
   </trkpt>
   <trkpt lat="43.84695000000001" lon="4.874910000000001">
    <ele>73.01</ele>
   </trkpt>
   <trkpt lat="43.846790000000006" lon="4.87499">
    <ele>73.01</ele>
   </trkpt>
   <trkpt lat="43.84673" lon="4.87506">
    <ele>73.01</ele>
   </trkpt>
   <trkpt lat="43.84669" lon="4.87525">
    <ele>73.01</ele>
   </trkpt>
   <trkpt lat="43.84664" lon="4.8753">
    <ele>73.01</ele>
   </trkpt>
   <trkpt lat="43.84655" lon="4.875310000000001">
    <ele>73.01</ele>
   </trkpt>
   <trkpt lat="43.84646" lon="4.87527">
    <ele>73.01</ele>
   </trkpt>
   <trkpt lat="43.84633" lon="4.875170000000001">
    <ele>73.01</ele>
   </trkpt>
   <trkpt lat="43.846210000000006" lon="4.87521">
    <ele>73.01</ele>
   </trkpt>
   <trkpt lat="43.84624" lon="4.875">
    <ele>72.48</ele>
   </trkpt>
   <trkpt lat="43.846210000000006" lon="4.87521">
    <ele>73.01</ele>
   </trkpt>
   <trkpt lat="43.84611" lon="4.87563">
    <ele>73.01</ele>
   </trkpt>
   <trkpt lat="43.84601000000001" lon="4.875970000000001">
    <ele>73.01</ele>
   </trkpt>
   <trkpt lat="43.84579" lon="4.876580000000001">
    <ele>73.01</ele>
   </trkpt>
   <trkpt lat="43.845760000000006" lon="4.87676">
    <ele>73.01</ele>
   </trkpt>
   <trkpt lat="43.845780000000005" lon="4.8769">
    <ele>73.01</ele>
   </trkpt>
   <trkpt lat="43.845940000000006" lon="4.8772400000000005">
    <ele>73.01</ele>
   </trkpt>
   <trkpt lat="43.84595" lon="4.87737">
    <ele>73.01</ele>
   </trkpt>
   <trkpt lat="43.845800000000004" lon="4.878150000000001">
    <ele>94.91000000000001</ele>
   </trkpt>
   <trkpt lat="43.84566" lon="4.878640000000001">
    <ele>94.91000000000001</ele>
   </trkpt>
   <trkpt lat="43.84566" lon="4.878850000000001">
    <ele>94.91000000000001</ele>
   </trkpt>
   <trkpt lat="43.845710000000004" lon="4.8793500000000005">
    <ele>94.91000000000001</ele>
   </trkpt>
   <trkpt lat="43.84564" lon="4.87992">
    <ele>94.91000000000001</ele>
   </trkpt>
   <trkpt lat="43.84547500145333" lon="4.880500001651076">
    <ele>94.91000000000001</ele>
   </trkpt>
   <trkpt lat="43.845310000000005" lon="4.881080000000001">
    <ele>94.91000000000001</ele>
   </trkpt>
   <trkpt lat="43.84501" lon="4.880890000000001">
    <ele>94.91000000000001</ele>
   </trkpt>
   <trkpt lat="43.84425" lon="4.88032">
    <ele>93.97000000000001</ele>
   </trkpt>
   <trkpt lat="43.84362" lon="4.8799">
    <ele>93.97000000000001</ele>
   </trkpt>
   <trkpt lat="43.84328000000001" lon="4.87966">
    <ele>94.06</ele>
   </trkpt>
   <trkpt lat="43.842740000000006" lon="4.87922">
    <ele>94.06</ele>
   </trkpt>
   <trkpt lat="43.8421100009364" lon="4.878729994739805">
    <ele>93.78</ele>
   </trkpt>
   <trkpt lat="43.841480000000004" lon="4.878240000000001">
    <ele>93.78</ele>
   </trkpt>
   <trkpt lat="43.84138" lon="4.87819">
    <ele>93.78</ele>
   </trkpt>
   <trkpt lat="43.8414950047763" lon="4.879239997699089">
    <ele>92.15</ele>
   </trkpt>
   <trkpt lat="43.84161" lon="4.8802900000000005">
    <ele>92.15</ele>
   </trkpt>
   <trkpt lat="43.84176" lon="4.881010000000001">
    <ele>90.49</ele>
   </trkpt>
   <trkpt lat="43.84178000000001" lon="4.8812500000000005">
    <ele>90.49</ele>
   </trkpt>
   <trkpt lat="43.84176" lon="4.88147">
    <ele>90.49</ele>
   </trkpt>
   <trkpt lat="43.841680000000004" lon="4.88189">
    <ele>90.49</ele>
   </trkpt>
   <trkpt lat="43.84161" lon="4.882090000000001">
    <ele>90.49</ele>
   </trkpt>
   <trkpt lat="43.841550000000005" lon="4.8821900000000005">
    <ele>90.49</ele>
   </trkpt>
   <trkpt lat="43.84142000000001" lon="4.88232">
    <ele>90.49</ele>
   </trkpt>
   <trkpt lat="43.841350000000006" lon="4.882370000000001">
    <ele>90.49</ele>
   </trkpt>
   <trkpt lat="43.841" lon="4.882510000000001">
    <ele>90.49</ele>
   </trkpt>
   <trkpt lat="43.840810000000005" lon="4.88264">
    <ele>90.49</ele>
   </trkpt>
   <trkpt lat="43.840740000000004" lon="4.882720000000001">
    <ele>90.49</ele>
   </trkpt>
   <trkpt lat="43.8406" lon="4.88302">
    <ele>90.49</ele>
   </trkpt>
   <trkpt lat="43.840430000000005" lon="4.88372">
    <ele>80.95</ele>
   </trkpt>
   <trkpt lat="43.840250000000005" lon="4.88412">
    <ele>80.95</ele>
   </trkpt>
   <trkpt lat="43.840140000000005" lon="4.8843000000000005">
    <ele>80.95</ele>
   </trkpt>
   <trkpt lat="43.83999" lon="4.88443">
    <ele>80.95</ele>
   </trkpt>
   <trkpt lat="43.83957" lon="4.884600000000001">
    <ele>80.95</ele>
   </trkpt>
   <trkpt lat="43.839470000000006" lon="4.884670000000001">
    <ele>80.95</ele>
   </trkpt>
   <trkpt lat="43.839360000000006" lon="4.884860000000001">
    <ele>80.95</ele>
   </trkpt>
   <trkpt lat="43.839360000000006" lon="4.88487">
    <ele>80.95</ele>
   </trkpt>
   <trkpt lat="43.83935" lon="4.88497">
    <ele>80.95</ele>
   </trkpt>
   <trkpt lat="43.839360000000006" lon="4.885140000000001">
    <ele>80.95</ele>
   </trkpt>
   <trkpt lat="43.839380000000006" lon="4.88523">
    <ele>80.95</ele>
   </trkpt>
   <trkpt lat="43.839470000000006" lon="4.88546">
    <ele>80.95</ele>
   </trkpt>
   <trkpt lat="43.83980500155906" lon="4.886064996536763">
    <ele>80.95</ele>
   </trkpt>
   <trkpt lat="43.840140000000005" lon="4.8866700000000005">
    <ele>80.95</ele>
   </trkpt>
   <trkpt lat="43.840340000000005" lon="4.886900000000001">
    <ele>80.95</ele>
   </trkpt>
   <trkpt lat="43.840540000000004" lon="4.88706">
    <ele>80.95</ele>
   </trkpt>
   <trkpt lat="43.840740000000004" lon="4.887160000000001">
    <ele>80.95</ele>
   </trkpt>
   <trkpt lat="43.84096" lon="4.8872100000000005">
    <ele>80.95</ele>
   </trkpt>
   <trkpt lat="43.84134" lon="4.887250000000001">
    <ele>67.21000000000001</ele>
   </trkpt>
   <trkpt lat="43.841460000000005" lon="4.8872800000000005">
    <ele>67.21000000000001</ele>
   </trkpt>
   <trkpt lat="43.841710000000006" lon="4.88738">
    <ele>67.21000000000001</ele>
   </trkpt>
   <trkpt lat="43.84194" lon="4.88752">
    <ele>67.21000000000001</ele>
   </trkpt>
   <trkpt lat="43.842040000000004" lon="4.887600000000001">
    <ele>67.21000000000001</ele>
   </trkpt>
   <trkpt lat="43.842200000000005" lon="4.88776">
    <ele>67.21000000000001</ele>
   </trkpt>
   <trkpt lat="43.842360000000006" lon="4.88799">
    <ele>67.21000000000001</ele>
   </trkpt>
   <trkpt lat="43.842600000000004" lon="4.88842">
    <ele>67.21000000000001</ele>
   </trkpt>
   <trkpt lat="43.8429" lon="4.88907">
    <ele>67.21000000000001</ele>
   </trkpt>
   <trkpt lat="43.84304" lon="4.88945">
    <ele>67.21000000000001</ele>
   </trkpt>
   <trkpt lat="43.843140000000005" lon="4.88985">
    <ele>67.21000000000001</ele>
   </trkpt>
   <trkpt lat="43.84328000292969" lon="4.890674997841908">
    <ele>60.29</ele>
   </trkpt>
   <trkpt lat="43.84342" lon="4.891500000000001">
    <ele>60.17000000000001</ele>
   </trkpt>
   <trkpt lat="43.84348000000001" lon="4.89222">
    <ele>60.17000000000001</ele>
   </trkpt>
   <trkpt lat="43.84348000000001" lon="4.892530000000001">
    <ele>60.17000000000001</ele>
   </trkpt>
   <trkpt lat="43.843415006543005" lon="4.893755001322784">
    <ele>47.66</ele>
   </trkpt>
   <trkpt lat="43.84335" lon="4.89498">
    <ele>47.66</ele>
   </trkpt>
   <trkpt lat="43.84362" lon="4.89506">
    <ele>47.720000000000006</ele>
   </trkpt>
   <trkpt lat="43.84414" lon="4.894900000000001">
    <ele>47.720000000000006</ele>
   </trkpt>
   <trkpt lat="43.84465" lon="4.89479">
    <ele>47.720000000000006</ele>
   </trkpt>
   <trkpt lat="43.84536250039361" lon="4.894610006457489">
    <ele>47.720000000000006</ele>
   </trkpt>
   <trkpt lat="43.84607500050473" lon="4.894430008615202">
    <ele>47.720000000000006</ele>
   </trkpt>
   <trkpt lat="43.84678750033333" lon="4.894250006472931">
    <ele>49.84</ele>
   </trkpt>
   <trkpt lat="43.847500000000004" lon="4.89407">
    <ele>49.84</ele>
   </trkpt>
   <trkpt lat="43.84821499996209" lon="4.893910001951413">
    <ele>49.84</ele>
   </trkpt>
   <trkpt lat="43.84893" lon="4.893750000000001">
    <ele>49.84</ele>
   </trkpt>
   <trkpt lat="43.84906001694961" lon="4.894735991368174">
    <ele>49.84</ele>
   </trkpt>
   <trkpt lat="43.84919002542214" lon="4.895721987034824">
    <ele>48.06</ele>
   </trkpt>
   <trkpt lat="43.849320025417555" lon="4.896707986999708">
    <ele>48.06</ele>
   </trkpt>
   <trkpt lat="43.84945001693576" lon="4.897693991262586">
    <ele>48.06</ele>
   </trkpt>
   <trkpt lat="43.84958" lon="4.898680000000001">
    <ele>48.06</ele>
   </trkpt>
   <trkpt lat="43.84964333992708" lon="4.899549998068106">
    <ele>45.88</ele>
   </trkpt>
   <trkpt lat="43.84970667325429" lon="4.900419997983936">
    <ele>45.88</ele>
   </trkpt>
   <trkpt lat="43.84977000000001" lon="4.90129">
    <ele>45.88</ele>
   </trkpt>
   <trkpt lat="43.85047500057353" lon="4.901664995546272">
    <ele>45.58</ele>
   </trkpt>
   <trkpt lat="43.85118000000001" lon="4.90204">
    <ele>45.58</ele>
   </trkpt>
   <trkpt lat="43.85116" lon="4.90212">
    <ele>45.58</ele>
   </trkpt>
   <trkpt lat="43.851110000000006" lon="4.90219">
    <ele>45.58</ele>
   </trkpt>
   <trkpt lat="43.85087" lon="4.9023900000000005">
    <ele>45.58</ele>
   </trkpt>
   <trkpt lat="43.850430000316955" lon="4.9026850022181865">
    <ele>45.58</ele>
   </trkpt>
   <trkpt lat="43.849990000000005" lon="4.90298">
    <ele>46.910000000000004</ele>
   </trkpt>
   <trkpt lat="43.849544999961964" lon="4.903165001458113">
    <ele>46.910000000000004</ele>
   </trkpt>
   <trkpt lat="43.84910000000001" lon="4.9033500000000005">
    <ele>46.910000000000004</ele>
   </trkpt>
   <trkpt lat="43.84857" lon="4.90371">
    <ele>46.910000000000004</ele>
   </trkpt>
   <trkpt lat="43.848160000322366" lon="4.904015002158391">
    <ele>46.910000000000004</ele>
   </trkpt>
   <trkpt lat="43.847750000000005" lon="4.90432">
    <ele>46.910000000000004</ele>
   </trkpt>
   <trkpt lat="43.847" lon="4.90481">
    <ele>46.910000000000004</ele>
   </trkpt>
   <trkpt lat="43.84642" lon="4.90528">
    <ele>46.910000000000004</ele>
   </trkpt>
   <trkpt lat="43.8459" lon="4.905810000000001">
    <ele>46.910000000000004</ele>
   </trkpt>
   <trkpt lat="43.8457" lon="4.9060500000000005">
    <ele>46.910000000000004</ele>
   </trkpt>
   <trkpt lat="43.84516250730637" lon="4.906797520208248">
    <ele>49.63000000000001</ele>
   </trkpt>
   <trkpt lat="43.84462500974043" lon="4.907545026945829">
    <ele>49.63000000000001</ele>
   </trkpt>
   <trkpt lat="43.844087507302405" lon="4.908292520213115">
    <ele>49.63000000000001</ele>
   </trkpt>
   <trkpt lat="43.84355" lon="4.90904">
    <ele>49.63000000000001</ele>
   </trkpt>
   <trkpt lat="43.843340000000005" lon="4.9093100000000005">
    <ele>49.63000000000001</ele>
   </trkpt>
   <trkpt lat="43.843160000000005" lon="4.90946">
    <ele>49.63000000000001</ele>
   </trkpt>
   <trkpt lat="43.84304" lon="4.90953">
    <ele>49.63000000000001</ele>
   </trkpt>
   <trkpt lat="43.84259" lon="4.90974">
    <ele>49.63000000000001</ele>
   </trkpt>
   <trkpt lat="43.842530000000004" lon="4.909750000000001">
    <ele>49.63000000000001</ele>
   </trkpt>
   <trkpt lat="43.842310000000005" lon="4.90972">
    <ele>49.63000000000001</ele>
   </trkpt>
   <trkpt lat="43.84207000000001" lon="4.909800000000001">
    <ele>49.63000000000001</ele>
   </trkpt>
   <trkpt lat="43.841860000000004" lon="4.9099">
    <ele>49.63000000000001</ele>
   </trkpt>
   <trkpt lat="43.84208334343551" lon="4.910976658578867">
    <ele>48.010000000000005</ele>
   </trkpt>
   <trkpt lat="43.84230667676333" lon="4.912053325218788">
    <ele>48.010000000000005</ele>
   </trkpt>
   <trkpt lat="43.842530000000004" lon="4.913130000000001">
    <ele>48.1</ele>
   </trkpt>
   <trkpt lat="43.84255" lon="4.913320000000001">
    <ele>48.1</ele>
   </trkpt>
   <trkpt lat="43.842530000000004" lon="4.913600000000001">
    <ele>47.68000000000001</ele>
   </trkpt>
   <trkpt lat="43.84245000000001" lon="4.913900000000001">
    <ele>47.68000000000001</ele>
   </trkpt>
   <trkpt lat="43.842310000000005" lon="4.9141900000000005">
    <ele>47.68000000000001</ele>
   </trkpt>
   <trkpt lat="43.84214" lon="4.914470000000001">
    <ele>47.68000000000001</ele>
   </trkpt>
   <trkpt lat="43.841820000000006" lon="4.91483">
    <ele>47.68000000000001</ele>
   </trkpt>
   <trkpt lat="43.84116" lon="4.91537">
    <ele>49.1</ele>
   </trkpt>
   <trkpt lat="43.84107" lon="4.915500000000001">
    <ele>49.1</ele>
   </trkpt>
   <trkpt lat="43.84065500445368" lon="4.916515007152664">
    <ele>49.45</ele>
   </trkpt>
   <trkpt lat="43.84024" lon="4.91753">
    <ele>50.190000000000005</ele>
   </trkpt>
   <trkpt lat="43.840090000000004" lon="4.9176">
    <ele>50.25</ele>
   </trkpt>
   <trkpt lat="43.840030000000006" lon="4.91762">
    <ele>50.24000000000001</ele>
   </trkpt>
   <trkpt lat="43.84001000000001" lon="4.9177">
    <ele>50.24000000000001</ele>
   </trkpt>
   <trkpt lat="43.840070000000004" lon="4.91798">
    <ele>50.21</ele>
   </trkpt>
   <trkpt lat="43.840180000000004" lon="4.9187">
    <ele>50.24000000000001</ele>
   </trkpt>
   <trkpt lat="43.84019000000001" lon="4.9190000000000005">
    <ele>50.5</ele>
   </trkpt>
   <trkpt lat="43.840140000000005" lon="4.919420000000001">
    <ele>50.870000000000005</ele>
   </trkpt>
   <trkpt lat="43.84008" lon="4.91969">
    <ele>51.03000000000001</ele>
   </trkpt>
   <trkpt lat="43.84010000000001" lon="4.91973">
    <ele>51.02</ele>
   </trkpt>
   <trkpt lat="43.84008" lon="4.919790000000001">
    <ele>51.02</ele>
   </trkpt>
   <trkpt lat="43.84033500159424" lon="4.920389997493807">
    <ele>50.24000000000001</ele>
   </trkpt>
   <trkpt lat="43.840590000000006" lon="4.920990000000001">
    <ele>50.260000000000005</ele>
   </trkpt>
   <trkpt lat="43.840410000000006" lon="4.92056">
    <ele>50.24000000000001</ele>
   </trkpt>
   <trkpt lat="43.840430000000005" lon="4.92053">
    <ele>50.24000000000001</ele>
   </trkpt>
   <trkpt lat="43.84058" lon="4.920470000000001">
    <ele>50.24000000000001</ele>
   </trkpt>
   <trkpt lat="43.84141" lon="4.92037">
    <ele>49.28</ele>
   </trkpt>
   <trkpt lat="43.84176" lon="4.92037">
    <ele>49.28</ele>
   </trkpt>
   <trkpt lat="43.84214" lon="4.92053">
    <ele>49.330000000000005</ele>
   </trkpt>
   <trkpt lat="43.84234" lon="4.920590000000001">
    <ele>49.330000000000005</ele>
   </trkpt>
   <trkpt lat="43.84277" lon="4.92046">
    <ele>49.330000000000005</ele>
   </trkpt>
   <trkpt lat="43.843210000000006" lon="4.920260000000001">
    <ele>49.78</ele>
   </trkpt>
   <trkpt lat="43.84373" lon="4.91988">
    <ele>49.78</ele>
   </trkpt>
   <trkpt lat="43.84395000000001" lon="4.91976">
    <ele>49.410000000000004</ele>
   </trkpt>
   <trkpt lat="43.84409" lon="4.91971">
    <ele>49.410000000000004</ele>
   </trkpt>
   <trkpt lat="43.84418" lon="4.91971">
    <ele>49.410000000000004</ele>
   </trkpt>
   <trkpt lat="43.844020002771344" lon="4.918909997759734">
    <ele>49.410000000000004</ele>
   </trkpt>
   <trkpt lat="43.84386000000001" lon="4.91811">
    <ele>49.07</ele>
   </trkpt>
   <trkpt lat="43.84385" lon="4.91797">
    <ele>49.07</ele>
   </trkpt>
   <trkpt lat="43.84387" lon="4.917890000000001">
    <ele>49.07</ele>
   </trkpt>
   <trkpt lat="43.84393" lon="4.917800000000001">
    <ele>49.07</ele>
   </trkpt>
   <trkpt lat="43.84458" lon="4.91722">
    <ele>49.07</ele>
   </trkpt>
   <trkpt lat="43.84505" lon="4.9167700000000005">
    <ele>49.07</ele>
   </trkpt>
   <trkpt lat="43.84535" lon="4.91652">
    <ele>49.07</ele>
   </trkpt>
   <trkpt lat="43.845960001406" lon="4.915945005913407">
    <ele>49.07</ele>
   </trkpt>
   <trkpt lat="43.84657000000001" lon="4.91537">
    <ele>48.92</ele>
   </trkpt>
   <trkpt lat="43.847080000000005" lon="4.9148700000000005">
    <ele>48.92</ele>
   </trkpt>
   <trkpt lat="43.847350000000006" lon="4.914560000000001">
    <ele>48.92</ele>
   </trkpt>
   <trkpt lat="43.848015001366065" lon="4.91400000624435">
    <ele>48.92</ele>
   </trkpt>
   <trkpt lat="43.84868" lon="4.9134400000000005">
    <ele>48.24</ele>
   </trkpt>
   <trkpt lat="43.848890000000004" lon="4.91321">
    <ele>48.24</ele>
   </trkpt>
   <trkpt lat="43.84944" lon="4.912640000000001">
    <ele>48.24</ele>
   </trkpt>
   <trkpt lat="43.849810000000005" lon="4.9123">
    <ele>48.24</ele>
   </trkpt>
   <trkpt lat="43.84995000000001" lon="4.912140000000001">
    <ele>48.24</ele>
   </trkpt>
   <trkpt lat="43.85018" lon="4.911790000000001">
    <ele>48.24</ele>
   </trkpt>
   <trkpt lat="43.850260000000006" lon="4.911700000000001">
    <ele>48.24</ele>
   </trkpt>
   <trkpt lat="43.850620000000006" lon="4.91145">
    <ele>48.24</ele>
   </trkpt>
   <trkpt lat="43.85074" lon="4.911390000000001">
    <ele>48.24</ele>
   </trkpt>
   <trkpt lat="43.851110000000006" lon="4.91126">
    <ele>48.24</ele>
   </trkpt>
   <trkpt lat="43.851330000000004" lon="4.9110700000000005">
    <ele>48.24</ele>
   </trkpt>
   <trkpt lat="43.85155" lon="4.910760000000001">
    <ele>48.24</ele>
   </trkpt>
   <trkpt lat="43.851720002429516" lon="4.910015002081058">
    <ele>48.24</ele>
   </trkpt>
   <trkpt lat="43.851890000000004" lon="4.90927">
    <ele>45.93000000000001</ele>
   </trkpt>
   <trkpt lat="43.851980000000005" lon="4.90911">
    <ele>45.93000000000001</ele>
   </trkpt>
   <trkpt lat="43.8521" lon="4.90897">
    <ele>45.93000000000001</ele>
   </trkpt>
   <trkpt lat="43.85251500076256" lon="4.908595002474441">
    <ele>45.93000000000001</ele>
   </trkpt>
   <trkpt lat="43.85293" lon="4.90822">
    <ele>45.93000000000001</ele>
   </trkpt>
   <trkpt lat="43.85309" lon="4.908110000000001">
    <ele>45.93000000000001</ele>
   </trkpt>
   <trkpt lat="43.85351000000001" lon="4.907920000000001">
    <ele>45.93000000000001</ele>
   </trkpt>
   <trkpt lat="43.85367" lon="4.9078100000000004">
    <ele>45.93000000000001</ele>
   </trkpt>
   <trkpt lat="43.85383" lon="4.90765">
    <ele>45.93000000000001</ele>
   </trkpt>
   <trkpt lat="43.85405" lon="4.907360000000001">
    <ele>45.93000000000001</ele>
   </trkpt>
   <trkpt lat="43.854400000000005" lon="4.90704">
    <ele>45.93000000000001</ele>
   </trkpt>
   <trkpt lat="43.854800000000004" lon="4.90662">
    <ele>45.93000000000001</ele>
   </trkpt>
   <trkpt lat="43.85542" lon="4.9061">
    <ele>45.93000000000001</ele>
   </trkpt>
   <trkpt lat="43.85590000021318" lon="4.9059000015937375">
    <ele>45.92</ele>
   </trkpt>
   <trkpt lat="43.85638" lon="4.9057">
    <ele>45.92</ele>
   </trkpt>
   <trkpt lat="43.85699500041644" lon="4.90534500373819">
    <ele>45.92</ele>
   </trkpt>
   <trkpt lat="43.85761" lon="4.904990000000001">
    <ele>45.92</ele>
   </trkpt>
   <trkpt lat="43.857850000000006" lon="4.90488">
    <ele>45.92</ele>
   </trkpt>
   <trkpt lat="43.85871" lon="4.904800000000001">
    <ele>45.92</ele>
   </trkpt>
   <trkpt lat="43.85891" lon="4.9047600000000005">
    <ele>45.92</ele>
   </trkpt>
   <trkpt lat="43.859100000000005" lon="4.90469">
    <ele>45.92</ele>
   </trkpt>
   <trkpt lat="43.859700000000004" lon="4.904380000000001">
    <ele>43.75</ele>
   </trkpt>
   <trkpt lat="43.86016" lon="4.90411">
    <ele>43.75</ele>
   </trkpt>
   <trkpt lat="43.8609" lon="4.903720000000001">
    <ele>43.75</ele>
   </trkpt>
   <trkpt lat="43.8611" lon="4.90364">
    <ele>43.75</ele>
   </trkpt>
   <trkpt lat="43.861760000000004" lon="4.903440000000001">
    <ele>43.75</ele>
   </trkpt>
   <trkpt lat="43.86236500021894" lon="4.903340000985822">
    <ele>43.75</ele>
   </trkpt>
   <trkpt lat="43.862970000000004" lon="4.90324">
    <ele>43.75</ele>
   </trkpt>
   <trkpt lat="43.86309000000001" lon="4.90313">
    <ele>43.870000000000005</ele>
   </trkpt>
   <trkpt lat="43.86394000000001" lon="4.903020000000001">
    <ele>44.61</ele>
   </trkpt>
   <trkpt lat="43.864560000000004" lon="4.90289">
    <ele>44.61</ele>
   </trkpt>
   <trkpt lat="43.86543" lon="4.9027400000000005">
    <ele>44.61</ele>
   </trkpt>
   <trkpt lat="43.86600000000001" lon="4.90259">
    <ele>44.61</ele>
   </trkpt>
   <trkpt lat="43.866110000000006" lon="4.902550000000001">
    <ele>44.61</ele>
   </trkpt>
   <trkpt lat="43.86634" lon="4.902430000000001">
    <ele>44.61</ele>
   </trkpt>
   <trkpt lat="43.86674" lon="4.90233">
    <ele>44.61</ele>
   </trkpt>
   <trkpt lat="43.867630000052266" lon="4.902185002171453">
    <ele>43.49</ele>
   </trkpt>
   <trkpt lat="43.868520000000004" lon="4.90204">
    <ele>43.49</ele>
   </trkpt>
   <trkpt lat="43.86927000008448" lon="4.9020100003742755">
    <ele>43.49</ele>
   </trkpt>
   <trkpt lat="43.870020000000004" lon="4.90198">
    <ele>43.49</ele>
   </trkpt>
   <trkpt lat="43.87046" lon="4.9019">
    <ele>43.4</ele>
   </trkpt>
   <trkpt lat="43.87079000000001" lon="4.901870000000001">
    <ele>43.4</ele>
   </trkpt>
   <trkpt lat="43.87124" lon="4.9018500000000005">
    <ele>42.79</ele>
   </trkpt>
   <trkpt lat="43.87182499999657" lon="4.90172000129319">
    <ele>42.79</ele>
   </trkpt>
   <trkpt lat="43.87241" lon="4.901590000000001">
    <ele>43.93</ele>
   </trkpt>
   <trkpt lat="43.873003333614754" lon="4.901423336641017">
    <ele>44.370000000000005</ele>
   </trkpt>
   <trkpt lat="43.87359666698728" lon="4.9012566699633835">
    <ele>44.51</ele>
   </trkpt>
   <trkpt lat="43.874190000000006" lon="4.901090000000001">
    <ele>44.46000000000001</ele>
   </trkpt>
   <trkpt lat="43.87471" lon="4.90099">
    <ele>44.71000000000001</ele>
   </trkpt>
   <trkpt lat="43.87494" lon="4.90099">
    <ele>45.09</ele>
   </trkpt>
   <trkpt lat="43.874880000000005" lon="4.9019">
    <ele>45.290000000000006</ele>
   </trkpt>
   <trkpt lat="43.874880000000005" lon="4.9021300000000005">
    <ele>45.160000000000004</ele>
   </trkpt>
   <trkpt lat="43.87487" lon="4.902200000000001">
    <ele>45.12</ele>
   </trkpt>
   <trkpt lat="43.874880000000005" lon="4.90226">
    <ele>45.06</ele>
   </trkpt>
   <trkpt lat="43.87494" lon="4.9023200000000005">
    <ele>45.03</ele>
   </trkpt>
   <trkpt lat="43.87501" lon="4.902290000000001">
    <ele>45.14000000000001</ele>
   </trkpt>
   <trkpt lat="43.875040000000006" lon="4.902170000000001">
    <ele>45.230000000000004</ele>
   </trkpt>
   <trkpt lat="43.875020000000006" lon="4.90212">
    <ele>45.230000000000004</ele>
   </trkpt>
   <trkpt lat="43.874900000000004" lon="4.90202">
    <ele>45.24</ele>
   </trkpt>
   <trkpt lat="43.874880000000005" lon="4.9019">
    <ele>45.290000000000006</ele>
   </trkpt>
   <trkpt lat="43.87494" lon="4.90099">
    <ele>45.09</ele>
   </trkpt>
   <trkpt lat="43.874950000000005" lon="4.90061">
    <ele>45.160000000000004</ele>
   </trkpt>
   <trkpt lat="43.874930000000006" lon="4.900320000000001">
    <ele>45.160000000000004</ele>
   </trkpt>
   <trkpt lat="43.874880000000005" lon="4.89993">
    <ele>44.92</ele>
   </trkpt>
   <trkpt lat="43.875130000000006" lon="4.899760000000001">
    <ele>45.06</ele>
   </trkpt>
   <trkpt lat="43.875350000000005" lon="4.89956">
    <ele>45.06</ele>
   </trkpt>
   <trkpt lat="43.875420000000005" lon="4.89947">
    <ele>45.06</ele>
   </trkpt>
   <trkpt lat="43.87585000000001" lon="4.898630000000001">
    <ele>42.67000000000001</ele>
   </trkpt>
   <trkpt lat="43.87592" lon="4.898350000000001">
    <ele>42.67000000000001</ele>
   </trkpt>
   <trkpt lat="43.87599" lon="4.89787">
    <ele>42.43</ele>
   </trkpt>
   <trkpt lat="43.876093340292314" lon="4.896976669764112">
    <ele>42.43</ele>
   </trkpt>
   <trkpt lat="43.87619667362577" lon="4.896083336429859">
    <ele>41.71</ele>
   </trkpt>
   <trkpt lat="43.8763" lon="4.89519">
    <ele>41.71</ele>
   </trkpt>
   <trkpt lat="43.87638000229369" lon="4.894465000955389">
    <ele>43.5</ele>
   </trkpt>
   <trkpt lat="43.87646" lon="4.89374">
    <ele>43.64000000000001</ele>
   </trkpt>
   <trkpt lat="43.876470000000005" lon="4.893210000000001">
    <ele>45.1</ele>
   </trkpt>
   <trkpt lat="43.876380000000005" lon="4.89282">
    <ele>45.1</ele>
   </trkpt>
   <trkpt lat="43.876955001286596" lon="4.892270005338263">
    <ele>50.77</ele>
   </trkpt>
   <trkpt lat="43.87753" lon="4.89172">
    <ele>50.77</ele>
   </trkpt>
   <trkpt lat="43.87789" lon="4.8910800000000005">
    <ele>50.77</ele>
   </trkpt>
   <trkpt lat="43.878350000000005" lon="4.8904000000000005">
    <ele>64.69000000000001</ele>
   </trkpt>
   <trkpt lat="43.878490000000006" lon="4.8900500000000005">
    <ele>64.69000000000001</ele>
   </trkpt>
   <trkpt lat="43.87866" lon="4.8895100000000005">
    <ele>69.05</ele>
   </trkpt>
   <trkpt lat="43.87872" lon="4.8894400000000005">
    <ele>69.05</ele>
   </trkpt>
   <trkpt lat="43.878930000000004" lon="4.889270000000001">
    <ele>74.08000000000001</ele>
   </trkpt>
   <trkpt lat="43.87901" lon="4.88917">
    <ele>74.08000000000001</ele>
   </trkpt>
   <trkpt lat="43.87928" lon="4.88865">
    <ele>74.08000000000001</ele>
   </trkpt>
   <trkpt lat="43.87946" lon="4.88813">
    <ele>74.08000000000001</ele>
   </trkpt>
   <trkpt lat="43.87961000000001" lon="4.887530000000001">
    <ele>91.49</ele>
   </trkpt>
   <trkpt lat="43.87962" lon="4.88726">
    <ele>91.49</ele>
   </trkpt>
   <trkpt lat="43.879540000000006" lon="4.886760000000001">
    <ele>91.49</ele>
   </trkpt>
   <trkpt lat="43.879540000000006" lon="4.88675">
    <ele>91.49</ele>
   </trkpt>
   <trkpt lat="43.87944" lon="4.8863900000000005">
    <ele>95.48</ele>
   </trkpt>
   <trkpt lat="43.879340000000006" lon="4.886220000000001">
    <ele>95.48</ele>
   </trkpt>
   <trkpt lat="43.87903" lon="4.88598">
    <ele>95.48</ele>
   </trkpt>
   <trkpt lat="43.87868" lon="4.885680000000001">
    <ele>101.92</ele>
   </trkpt>
   <trkpt lat="43.87861" lon="4.885660000000001">
    <ele>101.92</ele>
   </trkpt>
   <trkpt lat="43.878530000000005" lon="4.88567">
    <ele>101.92</ele>
   </trkpt>
   <trkpt lat="43.878330000000005" lon="4.885750000000001">
    <ele>101.92</ele>
   </trkpt>
   <trkpt lat="43.87818" lon="4.885750000000001">
    <ele>101.92</ele>
   </trkpt>
   <trkpt lat="43.87762" lon="4.88541">
    <ele>101.92</ele>
   </trkpt>
   <trkpt lat="43.877250000000004" lon="4.885090000000001">
    <ele>104.85000000000001</ele>
   </trkpt>
   <trkpt lat="43.876613334213395" lon="4.884766659741343">
    <ele>105.46000000000001</ele>
   </trkpt>
   <trkpt lat="43.87597666751515" lon="4.884443326392075">
    <ele>103.4</ele>
   </trkpt>
   <trkpt lat="43.87534" lon="4.88412">
    <ele>98.33000000000001</ele>
   </trkpt>
   <trkpt lat="43.87511000000001" lon="4.88398">
    <ele>98.33000000000001</ele>
   </trkpt>
   <trkpt lat="43.87464000000001" lon="4.883590000000001">
    <ele>98.33000000000001</ele>
   </trkpt>
   <trkpt lat="43.87415" lon="4.883290000000001">
    <ele>100.22</ele>
   </trkpt>
   <trkpt lat="43.87376500038268" lon="4.882959997789108">
    <ele>100.22</ele>
   </trkpt>
   <trkpt lat="43.873380000000004" lon="4.882630000000001">
    <ele>100.22</ele>
   </trkpt>
   <trkpt lat="43.87324" lon="4.88255">
    <ele>100.22</ele>
   </trkpt>
   <trkpt lat="43.872789999997934" lon="4.882399998833979">
    <ele>100.22</ele>
   </trkpt>
   <trkpt lat="43.87234" lon="4.88225">
    <ele>100.22</ele>
   </trkpt>
   <trkpt lat="43.871680000000005" lon="4.88208">
    <ele>104.76</ele>
   </trkpt>
   <trkpt lat="43.871410000000004" lon="4.8820500000000004">
    <ele>104.76</ele>
   </trkpt>
   <trkpt lat="43.87109" lon="4.88208">
    <ele>104.76</ele>
   </trkpt>
   <trkpt lat="43.870940000000004" lon="4.882070000000001">
    <ele>104.76</ele>
   </trkpt>
   <trkpt lat="43.87086" lon="4.882040000000001">
    <ele>104.76</ele>
   </trkpt>
   <trkpt lat="43.87073" lon="4.88191">
    <ele>104.76</ele>
   </trkpt>
   <trkpt lat="43.870630000000006" lon="4.881760000000001">
    <ele>104.76</ele>
   </trkpt>
   <trkpt lat="43.87053" lon="4.88154">
    <ele>104.76</ele>
   </trkpt>
   <trkpt lat="43.87046" lon="4.88145">
    <ele>104.76</ele>
   </trkpt>
   <trkpt lat="43.870380000000004" lon="4.88138">
    <ele>104.76</ele>
   </trkpt>
   <trkpt lat="43.869780000000006" lon="4.88102">
    <ele>104.76</ele>
   </trkpt>
   <trkpt lat="43.86945" lon="4.880730000000001">
    <ele>104.76</ele>
   </trkpt>
   <trkpt lat="43.86909000000001" lon="4.88051">
    <ele>102.56000000000002</ele>
   </trkpt>
   <trkpt lat="43.868750000000006" lon="4.88037">
    <ele>102.56000000000002</ele>
   </trkpt>
   <trkpt lat="43.86842" lon="4.880310000000001">
    <ele>102.56000000000002</ele>
   </trkpt>
   <trkpt lat="43.868140000000004" lon="4.8803">
    <ele>102.56000000000002</ele>
   </trkpt>
   <trkpt lat="43.868" lon="4.88025">
    <ele>103.28000000000002</ele>
   </trkpt>
   <trkpt lat="43.86773" lon="4.88006">
    <ele>103.37</ele>
   </trkpt>
   <trkpt lat="43.867610000000006" lon="4.879700000000001">
    <ele>103.37</ele>
   </trkpt>
   <trkpt lat="43.8674" lon="4.878900000000001">
    <ele>104.16</ele>
   </trkpt>
   <trkpt lat="43.8674" lon="4.8788100000000005">
    <ele>104.16</ele>
   </trkpt>
   <trkpt lat="43.86746" lon="4.8787">
    <ele>104.16</ele>
   </trkpt>
   <trkpt lat="43.8678" lon="4.87866">
    <ele>104.16</ele>
   </trkpt>
   <trkpt lat="43.867830000000005" lon="4.8786000000000005">
    <ele>104.16</ele>
   </trkpt>
   <trkpt lat="43.86771" lon="4.87764">
    <ele>97.29</ele>
   </trkpt>
   <trkpt lat="43.86771" lon="4.87706">
    <ele>97.29</ele>
   </trkpt>
   <trkpt lat="43.867740000000005" lon="4.87678">
    <ele>97.29</ele>
   </trkpt>
   <trkpt lat="43.867700000000006" lon="4.87631">
    <ele>97.29</ele>
   </trkpt>
   <trkpt lat="43.86762" lon="4.8759500000000005">
    <ele>97.29</ele>
   </trkpt>
   <trkpt lat="43.86741000000001" lon="4.87546">
    <ele>97.29</ele>
   </trkpt>
   <trkpt lat="43.86694000307538" lon="4.874629993582404">
    <ele>87.48</ele>
   </trkpt>
   <trkpt lat="43.86647000000001" lon="4.8738">
    <ele>87.48</ele>
   </trkpt>
   <trkpt lat="43.866400000000006" lon="4.87375">
    <ele>87.48</ele>
   </trkpt>
   <trkpt lat="43.866535015323656" lon="4.872667507380727">
    <ele>87.48</ele>
   </trkpt>
   <trkpt lat="43.866670020429474" lon="4.871585009857884">
    <ele>87.48</ele>
   </trkpt>
   <trkpt lat="43.86680501531735" lon="4.870502507431796">
    <ele>77.09</ele>
   </trkpt>
   <trkpt lat="43.86694000000001" lon="4.869420000000001">
    <ele>77.09</ele>
   </trkpt>
   <trkpt lat="43.86703000000001" lon="4.8691">
    <ele>77.09</ele>
   </trkpt>
   <trkpt lat="43.867020000000004" lon="4.86911">
    <ele>77.09</ele>
   </trkpt>
   <trkpt lat="43.86717" lon="4.86894">
    <ele>77.09</ele>
   </trkpt>
   <trkpt lat="43.867430000000006" lon="4.868810000000001">
    <ele>77.09</ele>
   </trkpt>
   <trkpt lat="43.86789999998816" lon="4.868770000317007">
    <ele>77.09</ele>
   </trkpt>
   <trkpt lat="43.868370000000006" lon="4.86873">
    <ele>77.09</ele>
   </trkpt>
   <trkpt lat="43.868970000015686" lon="4.868779999497074">
    <ele>77.09</ele>
   </trkpt>
   <trkpt lat="43.86957" lon="4.86883">
    <ele>63.9</ele>
   </trkpt>
   <trkpt lat="43.86976000000001" lon="4.868790000000001">
    <ele>63.9</ele>
   </trkpt>
   <trkpt lat="43.869890000000005" lon="4.86871">
    <ele>63.9</ele>
   </trkpt>
   <trkpt lat="43.869960000000006" lon="4.868550000000001">
    <ele>63.9</ele>
   </trkpt>
   <trkpt lat="43.87003000000001" lon="4.868200000000001">
    <ele>63.9</ele>
   </trkpt>
   <trkpt lat="43.8701" lon="4.868">
    <ele>63.9</ele>
   </trkpt>
   <trkpt lat="43.870200000000004" lon="4.86788">
    <ele>63.9</ele>
   </trkpt>
   <trkpt lat="43.87033" lon="4.86781">
    <ele>63.9</ele>
   </trkpt>
   <trkpt lat="43.87089" lon="4.86779">
    <ele>63.9</ele>
   </trkpt>
   <trkpt lat="43.87127" lon="4.86781">
    <ele>63.9</ele>
   </trkpt>
   <trkpt lat="43.87176500015158" lon="4.867560002137487">
    <ele>61.94</ele>
   </trkpt>
   <trkpt lat="43.872260000000004" lon="4.867310000000001">
    <ele>61.4</ele>
   </trkpt>
   <trkpt lat="43.872640000000004" lon="4.86704">
    <ele>58.25</ele>
   </trkpt>
   <trkpt lat="43.872800000000005" lon="4.86685">
    <ele>58.25</ele>
   </trkpt>
   <trkpt lat="43.873180000000005" lon="4.8674100000000005">
    <ele>59.71000000000001</ele>
   </trkpt>
   <trkpt lat="43.873310000000004" lon="4.867450000000001">
    <ele>59.71000000000001</ele>
   </trkpt>
   <trkpt lat="43.87382" lon="4.867430000000001">
    <ele>65.89</ele>
   </trkpt>
   <trkpt lat="43.87402" lon="4.86747">
    <ele>65.89</ele>
   </trkpt>
   <trkpt lat="43.87429" lon="4.8676">
    <ele>65.89</ele>
   </trkpt>
   <trkpt lat="43.87464000000001" lon="4.86796">
    <ele>65.89</ele>
   </trkpt>
   <trkpt lat="43.87500000000001" lon="4.86808">
    <ele>68.60000000000001</ele>
   </trkpt>
   <trkpt lat="43.875170000000004" lon="4.8682300000000005">
    <ele>70.37</ele>
   </trkpt>
   <trkpt lat="43.875310000000006" lon="4.868410000000001">
    <ele>70.37</ele>
   </trkpt>
   <trkpt lat="43.87539" lon="4.86836">
    <ele>70.37</ele>
   </trkpt>
   <trkpt lat="43.87583" lon="4.8683700000000005">
    <ele>70.21000000000001</ele>
   </trkpt>
   <trkpt lat="43.87595" lon="4.86934">
    <ele>72.07000000000001</ele>
   </trkpt>
   <trkpt lat="43.87594000000001" lon="4.869400000000001">
    <ele>72.74</ele>
   </trkpt>
   <trkpt lat="43.875960000000006" lon="4.8694500000000005">
    <ele>72.74</ele>
   </trkpt>
   <trkpt lat="43.875960000000006" lon="4.869680000000001">
    <ele>73.05</ele>
   </trkpt>
   <trkpt lat="43.875870000000006" lon="4.87032">
    <ele>74.13</ele>
   </trkpt>
   <trkpt lat="43.87585000000001" lon="4.871020000000001">
    <ele>73.52</ele>
   </trkpt>
   <trkpt lat="43.875890000000005" lon="4.8714">
    <ele>73.52</ele>
   </trkpt>
   <trkpt lat="43.87599" lon="4.87176">
    <ele>73.52</ele>
   </trkpt>
   <trkpt lat="43.87628" lon="4.87239">
    <ele>63.49</ele>
   </trkpt>
   <trkpt lat="43.876430000000006" lon="4.872610000000001">
    <ele>63.49</ele>
   </trkpt>
   <trkpt lat="43.87661000000001" lon="4.87281">
    <ele>63.49</ele>
   </trkpt>
   <trkpt lat="43.87677" lon="4.872940000000001">
    <ele>63.49</ele>
   </trkpt>
   <trkpt lat="43.87723000047355" lon="4.873234997783009">
    <ele>63.49</ele>
   </trkpt>
   <trkpt lat="43.87769" lon="4.873530000000001">
    <ele>61.11000000000001</ele>
   </trkpt>
   <trkpt lat="43.87803" lon="4.87371">
    <ele>61.11000000000001</ele>
   </trkpt>
   <trkpt lat="43.87838000000001" lon="4.873830000000001">
    <ele>61.11000000000001</ele>
   </trkpt>
   <trkpt lat="43.87883" lon="4.873900000000001">
    <ele>61.09</ele>
   </trkpt>
   <trkpt lat="43.879350000032396" lon="4.87392999973982">
    <ele>54.580000000000005</ele>
   </trkpt>
   <trkpt lat="43.879870000000004" lon="4.87396">
    <ele>52.52</ele>
   </trkpt>
   <trkpt lat="43.880030000000005" lon="4.8739300000000005">
    <ele>52.52</ele>
   </trkpt>
   <trkpt lat="43.88026000000001" lon="4.87387">
    <ele>49.63000000000001</ele>
   </trkpt>
   <trkpt lat="43.880750000000006" lon="4.873530000000001">
    <ele>49.63000000000001</ele>
   </trkpt>
   <trkpt lat="43.88101" lon="4.8732500000000005">
    <ele>49.45</ele>
   </trkpt>
   <trkpt lat="43.88109" lon="4.8731">
    <ele>49.45</ele>
   </trkpt>
   <trkpt lat="43.88132" lon="4.87246">
    <ele>51.09</ele>
   </trkpt>
   <trkpt lat="43.88147" lon="4.8722900000000005">
    <ele>51.09</ele>
   </trkpt>
   <trkpt lat="43.881640000000004" lon="4.87216">
    <ele>51.09</ele>
   </trkpt>
   <trkpt lat="43.882200000000005" lon="4.87209">
    <ele>48.75</ele>
   </trkpt>
   <trkpt lat="43.882400000000004" lon="4.87204">
    <ele>48.75</ele>
   </trkpt>
   <trkpt lat="43.882720000000006" lon="4.87185">
    <ele>48.75</ele>
   </trkpt>
   <trkpt lat="43.882870000000004" lon="4.871650000000001">
    <ele>47.78</ele>
   </trkpt>
   <trkpt lat="43.883" lon="4.87147">
    <ele>47.78</ele>
   </trkpt>
   <trkpt lat="43.883100000000006" lon="4.871250000000001">
    <ele>47.78</ele>
   </trkpt>
   <trkpt lat="43.88318" lon="4.87096">
    <ele>43.42</ele>
   </trkpt>
   <trkpt lat="43.883250000000004" lon="4.870430000000001">
    <ele>43.42</ele>
   </trkpt>
   <trkpt lat="43.88327" lon="4.8703">
    <ele>43.42</ele>
   </trkpt>
   <trkpt lat="43.88325000659732" lon="4.869429999291628">
    <ele>39.35</ele>
   </trkpt>
   <trkpt lat="43.883230006594474" lon="4.868559999167308">
    <ele>39.330000000000005</ele>
   </trkpt>
   <trkpt lat="43.883210000000005" lon="4.8676900000000005">
    <ele>38.62</ele>
   </trkpt>
   <trkpt lat="43.88308000000001" lon="4.86678">
    <ele>37.06</ele>
   </trkpt>
   <trkpt lat="43.88297" lon="4.86646">
    <ele>37.08</ele>
   </trkpt>
   <trkpt lat="43.88273" lon="4.86606">
    <ele>36.4</ele>
   </trkpt>
   <trkpt lat="43.88255" lon="4.86554">
    <ele>35.910000000000004</ele>
   </trkpt>
   <trkpt lat="43.88228" lon="4.86456">
    <ele>38.86000000000001</ele>
   </trkpt>
   <trkpt lat="43.882250000000006" lon="4.86441">
    <ele>38.86000000000001</ele>
   </trkpt>
   <trkpt lat="43.88226" lon="4.86413">
    <ele>38.86000000000001</ele>
   </trkpt>
   <trkpt lat="43.882310000000004" lon="4.86395">
    <ele>38.86000000000001</ele>
   </trkpt>
   <trkpt lat="43.882560000000005" lon="4.86347">
    <ele>37.88</ele>
   </trkpt>
   <trkpt lat="43.88288" lon="4.86298">
    <ele>36.660000000000004</ele>
   </trkpt>
   <trkpt lat="43.88304" lon="4.8628">
    <ele>36.08</ele>
   </trkpt>
   <trkpt lat="43.88313000630973" lon="4.861950002478257">
    <ele>35.18</ele>
   </trkpt>
   <trkpt lat="43.883220006319284" lon="4.861100002388201">
    <ele>35.33</ele>
   </trkpt>
   <trkpt lat="43.88331" lon="4.860250000000001">
    <ele>35.84</ele>
   </trkpt>
   <trkpt lat="43.88344" lon="4.860010000000001">
    <ele>35.84</ele>
   </trkpt>
   <trkpt lat="43.88349" lon="4.859780000000001">
    <ele>36.96</ele>
   </trkpt>
   <trkpt lat="43.88354" lon="4.859310000000001">
    <ele>36.96</ele>
   </trkpt>
   <trkpt lat="43.88354" lon="4.858840000000001">
    <ele>38.19</ele>
   </trkpt>
   <trkpt lat="43.88382" lon="4.858840000000001">
    <ele>38.19</ele>
   </trkpt>
   <trkpt lat="43.88420000000001" lon="4.8588000000000005">
    <ele>35.660000000000004</ele>
   </trkpt>
   <trkpt lat="43.88409667415271" lon="4.857873330101008">
    <ele>37.88</ele>
   </trkpt>
   <trkpt lat="43.88399334081739" lon="4.856946663416678">
    <ele>37.88</ele>
   </trkpt>
   <trkpt lat="43.88389" lon="4.85602">
    <ele>36.88</ele>
   </trkpt>
   <trkpt lat="43.88391" lon="4.855600000000001">
    <ele>36.50000000000001</ele>
   </trkpt>
   <trkpt lat="43.88418" lon="4.855650000000001">
    <ele>36.0</ele>
   </trkpt>
   <trkpt lat="43.88438" lon="4.85562">
    <ele>35.88</ele>
   </trkpt>
   <trkpt lat="43.88447" lon="4.855630000000001">
    <ele>35.88</ele>
   </trkpt>
   <trkpt lat="43.88449000000001" lon="4.855650000000001">
    <ele>35.81</ele>
   </trkpt>
   <trkpt lat="43.88449000000001" lon="4.8557500000000005">
    <ele>35.75</ele>
   </trkpt>
   <trkpt lat="43.884530000000005" lon="4.855770000000001">
    <ele>35.64000000000001</ele>
   </trkpt>
   <trkpt lat="43.88495" lon="4.85581">
    <ele>35.13</ele>
   </trkpt>
   <trkpt lat="43.88515" lon="4.85581">
    <ele>35.13</ele>
   </trkpt>
   <trkpt lat="43.88532" lon="4.8557500000000005">
    <ele>32.550000000000004</ele>
   </trkpt>
   <trkpt lat="43.88552000000001" lon="4.855630000000001">
    <ele>32.550000000000004</ele>
   </trkpt>
   <trkpt lat="43.88609" lon="4.85515">
    <ele>31.87</ele>
   </trkpt>
   <trkpt lat="43.8866" lon="4.85493">
    <ele>31.13</ele>
   </trkpt>
   <trkpt lat="43.88667" lon="4.854830000000001">
    <ele>31.13</ele>
   </trkpt>
   <trkpt lat="43.88669" lon="4.85479">
    <ele>31.160000000000004</ele>
   </trkpt>
   <trkpt lat="43.88678" lon="4.854360000000001">
    <ele>31.380000000000006</ele>
   </trkpt>
   <trkpt lat="43.88694" lon="4.853700000000001">
    <ele>32.0</ele>
   </trkpt>
   <trkpt lat="43.887240000000006" lon="4.85278">
    <ele>32.190000000000005</ele>
   </trkpt>
   <trkpt lat="43.8873" lon="4.85266">
    <ele>32.07</ele>
   </trkpt>
   <trkpt lat="43.88772" lon="4.85224">
    <ele>31.64</ele>
   </trkpt>
   <trkpt lat="43.8879" lon="4.85219">
    <ele>31.64</ele>
   </trkpt>
   <trkpt lat="43.888040000000004" lon="4.852200000000001">
    <ele>31.64</ele>
   </trkpt>
   <trkpt lat="43.88828" lon="4.8521">
    <ele>31.560000000000006</ele>
   </trkpt>
   <trkpt lat="43.88844" lon="4.851970000000001">
    <ele>31.71</ele>
   </trkpt>
   <trkpt lat="43.889070000000004" lon="4.8517600000000005">
    <ele>32.0</ele>
   </trkpt>
   <trkpt lat="43.889880000000005" lon="4.851450000000001">
    <ele>32.010000000000005</ele>
   </trkpt>
   <trkpt lat="43.89002000000001" lon="4.851360000000001">
    <ele>32.010000000000005</ele>
   </trkpt>
   <trkpt lat="43.8902" lon="4.85123">
    <ele>32.010000000000005</ele>
   </trkpt>
   <trkpt lat="43.89038" lon="4.85114">
    <ele>32.010000000000005</ele>
   </trkpt>
   <trkpt lat="43.89083" lon="4.85102">
    <ele>32.150000000000006</ele>
   </trkpt>
   <trkpt lat="43.890980000000006" lon="4.85095">
    <ele>32.150000000000006</ele>
   </trkpt>
   <trkpt lat="43.89146" lon="4.85057">
    <ele>29.94</ele>
   </trkpt>
   <trkpt lat="43.89181000000001" lon="4.850090000000001">
    <ele>29.94</ele>
   </trkpt>
   <trkpt lat="43.89195" lon="4.84999">
    <ele>29.960000000000004</ele>
   </trkpt>
   <trkpt lat="43.89206" lon="4.84992">
    <ele>29.960000000000004</ele>
   </trkpt>
   <trkpt lat="43.89226" lon="4.849880000000001">
    <ele>29.960000000000004</ele>
   </trkpt>
   <trkpt lat="43.892790000000005" lon="4.84984">
    <ele>30.810000000000002</ele>
   </trkpt>
   <trkpt lat="43.893190000000004" lon="4.84984">
    <ele>30.810000000000002</ele>
   </trkpt>
   <trkpt lat="43.89368" lon="4.84994">
    <ele>30.810000000000002</ele>
   </trkpt>
   <trkpt lat="43.893910000000005" lon="4.849950000000001">
    <ele>30.810000000000002</ele>
   </trkpt>
   <trkpt lat="43.89403" lon="4.84994">
    <ele>30.810000000000002</ele>
   </trkpt>
   <trkpt lat="43.89412" lon="4.849880000000001">
    <ele>30.810000000000002</ele>
   </trkpt>
   <trkpt lat="43.894580000000005" lon="4.8493900000000005">
    <ele>30.78</ele>
   </trkpt>
   <trkpt lat="43.895110001880354" lon="4.84874500565977">
    <ele>30.78</ele>
   </trkpt>
   <trkpt lat="43.89564" lon="4.8481000000000005">
    <ele>30.78</ele>
   </trkpt>
   <trkpt lat="43.895720000000004" lon="4.84797">
    <ele>30.78</ele>
   </trkpt>
   <trkpt lat="43.89616" lon="4.846900000000001">
    <ele>31.34</ele>
   </trkpt>
   <trkpt lat="43.89640000000001" lon="4.846450000000001">
    <ele>31.34</ele>
   </trkpt>
   <trkpt lat="43.896550000000005" lon="4.84621">
    <ele>31.52</ele>
   </trkpt>
   <trkpt lat="43.89712500305724" lon="4.845365008242052">
    <ele>29.810000000000002</ele>
   </trkpt>
   <trkpt lat="43.8977" lon="4.84452">
    <ele>28.330000000000002</ele>
   </trkpt>
   <trkpt lat="43.898" lon="4.843780000000001">
    <ele>28.470000000000002</ele>
   </trkpt>
   <trkpt lat="43.898120000000006" lon="4.843570000000001">
    <ele>28.470000000000002</ele>
   </trkpt>
   <trkpt lat="43.89866000000001" lon="4.843030000000001">
    <ele>29.77</ele>
   </trkpt>
   <trkpt lat="43.899280000000005" lon="4.84222">
    <ele>29.490000000000002</ele>
   </trkpt>
   <trkpt lat="43.899440000000006" lon="4.84205">
    <ele>29.490000000000002</ele>
   </trkpt>
   <trkpt lat="43.8999950006398" lon="4.841680003420396">
    <ele>28.490000000000002</ele>
   </trkpt>
   <trkpt lat="43.90055" lon="4.84131">
    <ele>28.490000000000002</ele>
   </trkpt>
   <trkpt lat="43.90068" lon="4.84123">
    <ele>28.490000000000002</ele>
   </trkpt>
   <trkpt lat="43.900940000000006" lon="4.841">
    <ele>28.490000000000002</ele>
   </trkpt>
   <trkpt lat="43.901230000000005" lon="4.840660000000001">
    <ele>28.080000000000002</ele>
   </trkpt>
   <trkpt lat="43.90129" lon="4.840420000000001">
    <ele>28.080000000000002</ele>
   </trkpt>
   <trkpt lat="43.90135" lon="4.84013">
    <ele>28.080000000000002</ele>
   </trkpt>
   <trkpt lat="43.901390000000006" lon="4.8401000000000005">
    <ele>28.080000000000002</ele>
   </trkpt>
   <trkpt lat="43.901610000000005" lon="4.84002">
    <ele>28.3</ele>
   </trkpt>
   <trkpt lat="43.90166000000001" lon="4.839980000000001">
    <ele>28.3</ele>
   </trkpt>
   <trkpt lat="43.901830000000004" lon="4.83968">
    <ele>28.3</ele>
   </trkpt>
   <trkpt lat="43.902010000000004" lon="4.83917">
    <ele>27.82</ele>
   </trkpt>
   <trkpt lat="43.90204000000001" lon="4.838900000000001">
    <ele>27.82</ele>
   </trkpt>
   <trkpt lat="43.902010000000004" lon="4.8386000000000005">
    <ele>27.090000000000003</ele>
   </trkpt>
   <trkpt lat="43.90185334513108" lon="4.837436660516216">
    <ele>26.94</ele>
   </trkpt>
   <trkpt lat="43.901696678460596" lon="4.836273327154824">
    <ele>27.26</ele>
   </trkpt>
   <trkpt lat="43.901540000000004" lon="4.83511">
    <ele>26.3</ele>
   </trkpt>
   <trkpt lat="43.901520000000005" lon="4.83502">
    <ele>26.3</ele>
   </trkpt>
   <trkpt lat="43.90146" lon="4.834980000000001">
    <ele>26.3</ele>
   </trkpt>
   <trkpt lat="43.90129" lon="4.834980000000001">
    <ele>26.3</ele>
   </trkpt>
   <trkpt lat="43.90122" lon="4.83495">
    <ele>26.3</ele>
   </trkpt>
   <trkpt lat="43.901140000000005" lon="4.83466">
    <ele>26.050000000000004</ele>
   </trkpt>
   <trkpt lat="43.90096500319485" lon="4.833804997523437">
    <ele>25.640000000000004</ele>
   </trkpt>
   <trkpt lat="43.90079" lon="4.83295">
    <ele>25.990000000000002</ele>
   </trkpt>
   <trkpt lat="43.90124500103909" lon="4.832495003340837">
    <ele>27.39</ele>
   </trkpt>
   <trkpt lat="43.901700000000005" lon="4.83204">
    <ele>27.39</ele>
   </trkpt>
   <trkpt lat="43.902155000701846" lon="4.831710002357402">
    <ele>27.250000000000004</ele>
   </trkpt>
   <trkpt lat="43.90261" lon="4.83138">
    <ele>26.29</ele>
   </trkpt>
   <trkpt lat="43.903180000000006" lon="4.8308800000000005">
    <ele>25.66</ele>
   </trkpt>
   <trkpt lat="43.903470000000006" lon="4.83065">
    <ele>25.45</ele>
   </trkpt>
   <trkpt lat="43.90379" lon="4.83032">
    <ele>25.890000000000004</ele>
   </trkpt>
   <trkpt lat="43.90401000000001" lon="4.830030000000001">
    <ele>26.320000000000004</ele>
   </trkpt>
   <trkpt lat="43.90435" lon="4.82936">
    <ele>26.98</ele>
   </trkpt>
   <trkpt lat="43.904610000000005" lon="4.828760000000001">
    <ele>26.29</ele>
   </trkpt>
   <trkpt lat="43.904900000000005" lon="4.82788">
    <ele>24.93</ele>
   </trkpt>
   <trkpt lat="43.90504000000001" lon="4.82732">
    <ele>24.93</ele>
   </trkpt>
   <trkpt lat="43.905260000000006" lon="4.8266">
    <ele>25.96</ele>
   </trkpt>
   <trkpt lat="43.905440000000006" lon="4.82613">
    <ele>25.96</ele>
   </trkpt>
   <trkpt lat="43.90565" lon="4.825740000000001">
    <ele>25.51</ele>
   </trkpt>
   <trkpt lat="43.906095002023505" lon="4.825055005155288">
    <ele>25.640000000000004</ele>
   </trkpt>
   <trkpt lat="43.90654000000001" lon="4.82437">
    <ele>25.640000000000004</ele>
   </trkpt>
   <trkpt lat="43.906870000000005" lon="4.82383">
    <ele>25.640000000000004</ele>
   </trkpt>
   <trkpt lat="43.90729" lon="4.82307">
    <ele>25.53</ele>
   </trkpt>
   <trkpt lat="43.90733" lon="4.822970000000001">
    <ele>25.53</ele>
   </trkpt>
   <trkpt lat="43.90733" lon="4.82286">
    <ele>25.53</ele>
   </trkpt>
   <trkpt lat="43.90728" lon="4.82268">
    <ele>25.53</ele>
   </trkpt>
   <trkpt lat="43.90711" lon="4.82232">
    <ele>25.53</ele>
   </trkpt>
   <trkpt lat="43.90710000000001" lon="4.82225">
    <ele>25.53</ele>
   </trkpt>
   <trkpt lat="43.90710000000001" lon="4.8222000000000005">
    <ele>25.53</ele>
   </trkpt>
   <trkpt lat="43.907180000000004" lon="4.82199">
    <ele>25.45</ele>
   </trkpt>
   <trkpt lat="43.90733" lon="4.82113">
    <ele>25.45</ele>
   </trkpt>
   <trkpt lat="43.90731" lon="4.820830000000001">
    <ele>25.45</ele>
   </trkpt>
   <trkpt lat="43.907230000000006" lon="4.82036">
    <ele>25.45</ele>
   </trkpt>
   <trkpt lat="43.907180000000004" lon="4.8199000000000005">
    <ele>25.45</ele>
   </trkpt>
   <trkpt lat="43.90712500287429" lon="4.819084998923512">
    <ele>25.45</ele>
   </trkpt>
   <trkpt lat="43.907070000000004" lon="4.81827">
    <ele>25.45</ele>
   </trkpt>
   <trkpt lat="43.907070000000004" lon="4.81777">
    <ele>24.360000000000003</ele>
   </trkpt>
   <trkpt lat="43.90713" lon="4.81655">
    <ele>24.360000000000003</ele>
   </trkpt>
   <trkpt lat="43.90713" lon="4.8158">
    <ele>24.360000000000003</ele>
   </trkpt>
   <trkpt lat="43.907090000000004" lon="4.81562">
    <ele>24.360000000000003</ele>
   </trkpt>
   <trkpt lat="43.90686" lon="4.81508">
    <ele>24.360000000000003</ele>
   </trkpt>
   <trkpt lat="43.90673" lon="4.814590000000001">
    <ele>24.360000000000003</ele>
   </trkpt>
   <trkpt lat="43.90668" lon="4.81451">
    <ele>24.360000000000003</ele>
   </trkpt>
   <trkpt lat="43.906600000000005" lon="4.81442">
    <ele>24.3</ele>
   </trkpt>
   <trkpt lat="43.906490000000005" lon="4.814100000000001">
    <ele>24.19</ele>
   </trkpt>
   <trkpt lat="43.90695" lon="4.8136600000000005">
    <ele>24.19</ele>
   </trkpt>
   <trkpt lat="43.907320000000006" lon="4.81324">
    <ele>24.19</ele>
   </trkpt>
   <trkpt lat="43.90779000388443" lon="4.812573343849119">
    <ele>22.71</ele>
   </trkpt>
   <trkpt lat="43.90826000389322" lon="4.8119066771701196">
    <ele>22.71</ele>
   </trkpt>
   <trkpt lat="43.908730000000006" lon="4.811240000000001">
    <ele>22.71</ele>
   </trkpt>
   <trkpt lat="43.90892" lon="4.810910000000001">
    <ele>22.860000000000003</ele>
   </trkpt>
   <trkpt lat="43.909495002913104" lon="4.8101000077513705">
    <ele>23.4</ele>
   </trkpt>
   <trkpt lat="43.910070000000005" lon="4.809290000000001">
    <ele>23.67</ele>
   </trkpt>
   <trkpt lat="43.91051000195449" lon="4.808630004796454">
    <ele>23.67</ele>
   </trkpt>
   <trkpt lat="43.91095000000001" lon="4.80797">
    <ele>24.07</ele>
   </trkpt>
   <trkpt lat="43.911010000000005" lon="4.8079600000000005">
    <ele>24.07</ele>
   </trkpt>
   <trkpt lat="43.91145" lon="4.80729">
    <ele>25.27</ele>
   </trkpt>
   <trkpt lat="43.911590000000004" lon="4.8071600000000005">
    <ele>25.27</ele>
   </trkpt>
   <trkpt lat="43.91158" lon="4.80717">
    <ele>25.27</ele>
   </trkpt>
   <trkpt lat="43.911820000000006" lon="4.807130000000001">
    <ele>25.35</ele>
   </trkpt>
   <trkpt lat="43.91212" lon="4.80719">
    <ele>24.28</ele>
   </trkpt>
   <trkpt lat="43.91254000000001" lon="4.80741">
    <ele>24.28</ele>
   </trkpt>
   <trkpt lat="43.91257" lon="4.8073500000000005">
    <ele>24.28</ele>
   </trkpt>
   <trkpt lat="43.912890000000004" lon="4.807510000000001">
    <ele>24.110000000000003</ele>
   </trkpt>
   <trkpt lat="43.913634002094824" lon="4.807857982588974">
    <ele>24.110000000000003</ele>
   </trkpt>
   <trkpt lat="43.91437800313363" lon="4.808205973878986">
    <ele>24.110000000000003</ele>
   </trkpt>
   <trkpt lat="43.91512200311641" lon="4.808553973870472">
    <ele>23.76</ele>
   </trkpt>
   <trkpt lat="43.915866002043074" lon="4.80890198256386">
    <ele>23.76</ele>
   </trkpt>
   <trkpt lat="43.916610000000006" lon="4.8092500000000005">
    <ele>24.110000000000003</ele>
   </trkpt>
   <trkpt lat="43.91662" lon="4.80919">
    <ele>24.12</ele>
   </trkpt>
   <trkpt lat="43.9168" lon="4.80924">
    <ele>24.55</ele>
   </trkpt>
   <trkpt lat="43.916830000000004" lon="4.80923">
    <ele>24.55</ele>
   </trkpt>
   <trkpt lat="43.91684" lon="4.8091800000000005">
    <ele>24.55</ele>
   </trkpt>
   <trkpt lat="43.91684" lon="4.809170000000001">
    <ele>24.55</ele>
   </trkpt>
   <trkpt lat="43.91677000000001" lon="4.809130000000001">
    <ele>24.62</ele>
   </trkpt>
   <trkpt lat="43.91669" lon="4.80905">
    <ele>24.62</ele>
   </trkpt>
   <trkpt lat="43.91657" lon="4.808280000000001">
    <ele>23.500000000000004</ele>
   </trkpt>
   <trkpt lat="43.916540000000005" lon="4.80823">
    <ele>23.500000000000004</ele>
   </trkpt>
   <trkpt lat="43.91633" lon="4.80938">
    <ele>23.790000000000003</ele>
   </trkpt>
   <trkpt lat="43.91630000000001" lon="4.80973">
    <ele>23.790000000000003</ele>
   </trkpt>
   <trkpt lat="43.916135513125134" lon="4.810889122958039">
    <ele>23.790000000000003</ele>
   </trkpt>
   <trkpt lat="43.9159710145339" lon="4.8120482395077095">
    <ele>23.790000000000003</ele>
   </trkpt>
   <trkpt lat="43.91580650422642" lon="4.81320734964863">
    <ele>23.790000000000003</ele>
   </trkpt>
   <trkpt lat="43.915641982202835" lon="4.814366453380416">
    <ele>23.790000000000003</ele>
   </trkpt>
   <trkpt lat="43.91547744846328" lon="4.815525550702681">
    <ele>24.28</ele>
   </trkpt>
   <trkpt lat="43.91531290300788" lon="4.816684641615043">
    <ele>24.28</ele>
   </trkpt>
   <trkpt lat="43.915148345836776" lon="4.817843726117118">
    <ele>24.28</ele>
   </trkpt>
   <trkpt lat="43.91498377695008" lon="4.819002804208521">
    <ele>24.28</ele>
   </trkpt>
   <trkpt lat="43.914819196347956" lon="4.820161875888869">
    <ele>24.28</ele>
   </trkpt>
   <trkpt lat="43.91465460403051" lon="4.821320941157776">
    <ele>24.28</ele>
   </trkpt>
   <trkpt lat="43.91449" lon="4.8224800000000005">
    <ele>24.28</ele>
   </trkpt>
   <trkpt lat="43.914460000000005" lon="4.82305">
    <ele>24.28</ele>
   </trkpt>
   <trkpt lat="43.914480000000005" lon="4.82343">
    <ele>24.28</ele>
   </trkpt>
   <trkpt lat="43.91458000631819" lon="4.824279997293784">
    <ele>22.69</ele>
   </trkpt>
   <trkpt lat="43.91468000633591" lon="4.825129997444375">
    <ele>22.69</ele>
   </trkpt>
   <trkpt lat="43.91478" lon="4.82598">
    <ele>22.69</ele>
   </trkpt>
   <trkpt lat="43.91492" lon="4.826560000000001">
    <ele>22.69</ele>
   </trkpt>
   <trkpt lat="43.914970000000004" lon="4.82655">
    <ele>24.23</ele>
   </trkpt>
   <trkpt lat="43.9153" lon="4.82638">
    <ele>24.43</ele>
   </trkpt>
   <trkpt lat="43.915490000000005" lon="4.8263300000000005">
    <ele>24.43</ele>
   </trkpt>
   <trkpt lat="43.91563" lon="4.82636">
    <ele>24.43</ele>
   </trkpt>
   <trkpt lat="43.91581" lon="4.826440000000001">
    <ele>24.43</ele>
   </trkpt>
   <trkpt lat="43.9164" lon="4.82695">
    <ele>25.09</ele>
   </trkpt>
   <trkpt lat="43.916520000000006" lon="4.827100000000001">
    <ele>25.09</ele>
   </trkpt>
   <trkpt lat="43.9166" lon="4.827310000000001">
    <ele>25.09</ele>
   </trkpt>
   <trkpt lat="43.916810000000005" lon="4.82847">
    <ele>25.09</ele>
   </trkpt>
   <trkpt lat="43.91646" lon="4.82868">
    <ele>25.09</ele>
   </trkpt>
   <trkpt lat="43.91633" lon="4.82878">
    <ele>25.09</ele>
   </trkpt>
   <trkpt lat="43.91626" lon="4.828880000000001">
    <ele>25.09</ele>
   </trkpt>
   <trkpt lat="43.91621000000001" lon="4.8290500000000005">
    <ele>25.09</ele>
   </trkpt>
   <trkpt lat="43.91619" lon="4.82925">
    <ele>25.09</ele>
   </trkpt>
   <trkpt lat="43.916162512435534" lon="4.830225001323741">
    <ele>25.09</ele>
   </trkpt>
   <trkpt lat="43.91613501658124" lon="4.831200001746574">
    <ele>27.76</ele>
   </trkpt>
   <trkpt lat="43.9161075124371" lon="4.832175001268232">
    <ele>27.76</ele>
   </trkpt>
   <trkpt lat="43.91608" lon="4.833150000000001">
    <ele>27.76</ele>
   </trkpt>
   <trkpt lat="43.916028021798844" lon="4.83426800392605">
    <ele>27.76</ele>
   </trkpt>
   <trkpt lat="43.915976032697806" lon="4.835386005898747">
    <ele>27.76</ele>
   </trkpt>
   <trkpt lat="43.91592403269691" lon="4.836504005917691">
    <ele>27.76</ele>
   </trkpt>
   <trkpt lat="43.91587202179619" lon="4.837622003982478">
    <ele>27.76</ele>
   </trkpt>
   <trkpt lat="43.915820000000004" lon="4.8387400000000005">
    <ele>27.76</ele>
   </trkpt>
   <trkpt lat="43.91578500513105" lon="4.8398250006968855">
    <ele>26.03</ele>
   </trkpt>
   <trkpt lat="43.91575" lon="4.84091">
    <ele>26.03</ele>
   </trkpt>
   <trkpt lat="43.91569500333473" lon="4.841785000865092">
    <ele>26.03</ele>
   </trkpt>
   <trkpt lat="43.91564" lon="4.84266">
    <ele>26.03</ele>
   </trkpt>
   <trkpt lat="43.91564" lon="4.84307">
    <ele>26.03</ele>
   </trkpt>
   <trkpt lat="43.91570000622997" lon="4.844264998864537">
    <ele>26.03</ele>
   </trkpt>
   <trkpt lat="43.915760000000006" lon="4.84546">
    <ele>26.03</ele>
   </trkpt>
   <trkpt lat="43.91579000213998" lon="4.846159999728525">
    <ele>25.720000000000002</ele>
   </trkpt>
   <trkpt lat="43.915820000000004" lon="4.84686">
    <ele>25.720000000000002</ele>
   </trkpt>
   <trkpt lat="43.916430000000005" lon="4.8466700000000005">
    <ele>27.71</ele>
   </trkpt>
   <trkpt lat="43.916500000000006" lon="4.84666">
    <ele>27.71</ele>
   </trkpt>
   <trkpt lat="43.91657" lon="4.84668">
    <ele>27.71</ele>
   </trkpt>
   <trkpt lat="43.917320000000004" lon="4.847060000000001">
    <ele>27.71</ele>
   </trkpt>
   <trkpt lat="43.917440000000006" lon="4.847090000000001">
    <ele>27.750000000000004</ele>
   </trkpt>
   <trkpt lat="43.91761" lon="4.84707">
    <ele>27.750000000000004</ele>
   </trkpt>
   <trkpt lat="43.91789000000001" lon="4.84691">
    <ele>27.750000000000004</ele>
   </trkpt>
   <trkpt lat="43.9183" lon="4.84677">
    <ele>27.64</ele>
   </trkpt>
   <trkpt lat="43.918400000000005" lon="4.8467">
    <ele>27.64</ele>
   </trkpt>
   <trkpt lat="43.91884" lon="4.84621">
    <ele>27.37</ele>
   </trkpt>
   <trkpt lat="43.91913" lon="4.845940000000001">
    <ele>27.37</ele>
   </trkpt>
   <trkpt lat="43.919730000518896" lon="4.845550004026693">
    <ele>27.37</ele>
   </trkpt>
   <trkpt lat="43.92033000000001" lon="4.845160000000001">
    <ele>25.7</ele>
   </trkpt>
   <trkpt lat="43.92061" lon="4.84506">
    <ele>25.7</ele>
   </trkpt>
   <trkpt lat="43.92078" lon="4.84503">
    <ele>25.7</ele>
   </trkpt>
   <trkpt lat="43.921020000000006" lon="4.844950000000001">
    <ele>25.7</ele>
   </trkpt>
   <trkpt lat="43.92125" lon="4.844790000000001">
    <ele>25.7</ele>
   </trkpt>
   <trkpt lat="43.921440000000004" lon="4.84454">
    <ele>25.7</ele>
   </trkpt>
   <trkpt lat="43.92179" lon="4.84382">
    <ele>24.8</ele>
   </trkpt>
   <trkpt lat="43.92192" lon="4.84367">
    <ele>24.8</ele>
   </trkpt>
   <trkpt lat="43.92201" lon="4.8436200000000005">
    <ele>24.8</ele>
   </trkpt>
   <trkpt lat="43.92248" lon="4.84349">
    <ele>24.8</ele>
   </trkpt>
   <trkpt lat="43.922560000000004" lon="4.8434800000000005">
    <ele>24.8</ele>
   </trkpt>
   <trkpt lat="43.92268000000001" lon="4.84349">
    <ele>24.8</ele>
   </trkpt>
   <trkpt lat="43.922790000000006" lon="4.8435500000000005">
    <ele>24.8</ele>
   </trkpt>
   <trkpt lat="43.923610000000004" lon="4.84375">
    <ele>25.820000000000004</ele>
   </trkpt>
   <trkpt lat="43.92399" lon="4.84386">
    <ele>25.86</ele>
   </trkpt>
   <trkpt lat="43.9245" lon="4.84396">
    <ele>25.86</ele>
   </trkpt>
   <trkpt lat="43.92504" lon="4.84412">
    <ele>26.650000000000002</ele>
   </trkpt>
   <trkpt lat="43.925450000000005" lon="4.844270000000001">
    <ele>25.460000000000004</ele>
   </trkpt>
   <trkpt lat="43.925740000000005" lon="4.84443">
    <ele>25.460000000000004</ele>
   </trkpt>
   <trkpt lat="43.92586" lon="4.8445">
    <ele>25.32</ele>
   </trkpt>
   <trkpt lat="43.926120000000004" lon="4.844720000000001">
    <ele>25.030000000000005</ele>
   </trkpt>
   <trkpt lat="43.92618" lon="4.844740000000001">
    <ele>25.02</ele>
   </trkpt>
   <trkpt lat="43.926120000000004" lon="4.844720000000001">
    <ele>25.030000000000005</ele>
   </trkpt>
  </trkseg>
 </trk>
</gpx>
